NOMBRE,NOMBRE-WIKI,IDNOMBRE,tieneInstalacionesDeportivas,tieneWifi,generoAlumnos,TRANSPORTE,Cercanias,Cercanias Lines,Cercanias Station,Metro,Metro_Station,metro_line,Bus,bus_line,Superfice m²,ACCESIBILIDAD,NOMBRE-VIA,calle madrid,NOMBRE-VIA-WIKI,NUM,LOCALIDAD,LOCALIDAD-WIKI,PROVINCIA,CODIGO-POSTAL,BARRIO,BARRIO-WIKI,DISTRITO,DISTRITO-WIKI,LATITUD,LONGITUD,TELEFONO,EMAIL,TIPO,TipoInstalacion
Jardines Gregorio Ordóñez,,Jardines-Gregorio-Ordonez,no,,,"Metro: Núñez de Balboa (líneas 5 y 9) Bus: 1, 29, 52, 74  Servicio Bicimad, para consultar la estación más cercana, acceda al mapa de geolocalización de las estaciones.",,,,Metro: Núñez de Balboa (líneas 5 y 9),Núñez de Balboa,"5
9","Bus: 1, 29, 52, 74","1
29
52
74",3975,Instalación parcialmente accesible para personas con movilidad reducida,PRINCIPE DE VERGARA,Calle del Príncipe de Vergara,http://www.wikidata.org/entity/Q5741020,68,Madrid,http://www.wikidata.org/entity/Q1753102,MADRID,28006,Lista,http://www.wikidata.org/entity/Q4779,Salamanca,http://www.wikidata.org/entity/Q1773521,40.43346186779773,-3.6785954778654113,,,/contenido/entidadesYorganismos/ParquesJardines,ParquesJardines
Jardines San Francisco el Grande,,Jardines-San-Francisco-el-Grande,no especifica,,,"Bus: 3, 60 y 148.  Servicio Bicimad, para consultar la estación más cercana, acceda al mapa de geolocalización de las estaciones.",,,,,,,"Bus: 3, 60 y 148","3
60
148",4346,Instalación parcialmente accesible para personas con movilidad reducida,GRAN VIA DE SAN FRANCISCO,Gran Vía de San Francisco,http://www.wikidata.org/entity/Q32035437,25,Madrid,http://www.wikidata.org/entity/Q1753102,MADRID,28005,Palacio,http://www.wikidata.org/entity/Q2136510,Centro,http://www.wikidata.org/entity/Q1763376,40.41002249621306,-3.7144199127869557,,,/contenido/entidadesYorganismos/ParquesJardines/ColeccionesBotanicas,ParquesJardines
Jardines de Gloria Fuertes,,Jardines-de-Gloria-Fuertes,no,,,"Metro: línea 9 (Colombia) Bus: 16,29,150  Servicio Bicimad, para consultar la estación más cercana, acceda al mapa de geolocalización de las estaciones.",,,,Metro: línea 9 (Colombia),línea 9,9,"Bus: 16,29,150","16
29
150",1663,Instalación parcialmente accesible para personas con movilidad reducida,MADRE DE DIOS,calle MADRE DE DIOS Madrid,,2,Madrid,http://www.wikidata.org/entity/Q1753102,MADRID,28016,Nueva España,http://www.wikidata.org/entity/Q10338128,Chamartín,http://www.wikidata.org/entity/Q1766348,40.461517637696026,-3.6751179007317614,,,/contenido/entidadesYorganismos/ParquesJardines,ParquesJardines
Jardines de José Luis Jiménez Manso,,Jardines-de-Jose-Luis-Jimenez-Manso,no,,,"Metro: Estrella (línea 9) Bus: 20, 30, 32  Servicio Bicimad, para consultar la estación más cercana, acceda al mapa de geolocalización de las estaciones.",,,,Metro: Estrella (línea 9),Estrella,9,"Bus: 20, 30, 32","20
30
32",10775,Instalación parcialmente accesible para personas con movilidad reducida,CAMINO DE LOS VINATEROS,Calle Camino de los Vinateros,http://www.wikidata.org/entity/Q28935892,1,Madrid,http://www.wikidata.org/entity/Q1753102,MADRID,28030,Media Legua,http://www.wikidata.org/entity/Q9031035,Moratalaz,http://www.wikidata.org/entity/Q2076109,40.410944943237865,-3.660501733743551,,,/contenido/entidadesYorganismos/ParquesJardines,ParquesJardines
Jardines de San Fernando,,Jardines-de-San-Fernando,no,,,"Metro: Cuzco (línea 10) Bús: 5, 11, 40, 140, 150  Servicio Bicimad, para consultar la estación más cercana, acceda al mapa de geolocalización de las estaciones.",,,,Metro: Cuzco (línea 10),Cuzco,"10
5
11
40
140
150",,,12000,Instalación parcialmente accesible para personas con movilidad reducida,ALBERTO ALCOCER,avenida de Alberto Alcocer,http://www.wikidata.org/entity/Q26833742,9,Madrid,http://www.wikidata.org/entity/Q1753102,MADRID,28036,Nueva España,http://www.wikidata.org/entity/Q10338128,Chamartín,http://www.wikidata.org/entity/Q1766348,40.45978849094378,-3.687352342212426,,,/contenido/entidadesYorganismos/ParquesJardines,ParquesJardines
Jardines de la Avenida de Brasil,,Jardines-de-la-Avenida-de-Brasil,no,,,"Bus: 5, 126, 149  Servicio Bicimad, para consultar la estación más cercana, acceda al mapa de geolocalización de las estaciones.",,,,,,,"Bus: 5, 126, 149","5
126
149",16955,Instalación parcialmente accesible para personas con movilidad reducida,BRASIL,avenida de Brasil,http://www.wikidata.org/entity/Q27212874,31,Madrid,http://www.wikidata.org/entity/Q1753102,MADRID,28020,Castillejos,http://www.wikidata.org/entity/Q11913212,Tetuán,http://www.wikidata.org/entity/Q1773540,40.458706953002235,-3.6934625569379387,,,/contenido/entidadesYorganismos/ParquesJardines,ParquesJardines
Jardines de la Basílica,,Jardines-de-la-Basilica,no especifica,,,"Metro: Nuevos Ministerios (líneas 6, 8 y 10) RENFE: Nuevos Ministerios Bus: 5 , 69 y 149  Servicio Bicimad, para consultar la estación más cercana, acceda al mapa de geolocalización de las estaciones.","Renfe: Nuevos Ministerios (líneas C1, C3, C4, C7, C8, C10)","C-1
C-3
C-4
C-7
C-8
C-10",Nuevos Ministerios,"Metro: Nuevos Ministerios (líneas 6, 8 y 10)",Nuevos Ministerios,"6
8
10","Bus: 5 , 69 y 149","5
69
149",2410,Instalación parcialmente accesible para personas con movilidad reducida,BASILICA,calle BASILICA Madrid,,15,Madrid,http://www.wikidata.org/entity/Q1753102,MADRID,28020,Cuatro Caminos,http://www.wikidata.org/entity/Q5824684,Tetuán,http://www.wikidata.org/entity/Q1773540,40.44903638127448,-3.695615530710886,,,/contenido/entidadesYorganismos/ParquesJardines,ParquesJardines
Jardines de la Cuesta de la Vega,,Jardines-de-la-Cuesta-de-la-Vega,no especifica,,,"Bus: 31 , 41 , 50 , 65  Servicio Bicimad, para consultar la estación más cercana, acceda al mapa de geolocalización de las estaciones.",,,,,,,"Bus: 31 , 41 , 50 , 65","31
41
50
65",2817,Instalación parcialmente accesible para personas con movilidad reducida,VEGA,"Calle de Lope de Vega, Madrid",http://www.wikidata.org/entity/Q19800989,1,Madrid,http://www.wikidata.org/entity/Q1753102,MADRID,28013,Palacio,http://www.wikidata.org/entity/Q2136510,Centro,http://www.wikidata.org/entity/Q1763376,40.41476219795408,-3.7154411142835397,,,/contenido/entidadesYorganismos/ParquesJardines,ParquesJardines
Jardines de la Plaza Conde del Valle de Suchil,,Jardines-de-la-Plaza-Conde-del-Valle-de-Suchil,no,,,"Metro: San Bernardo (líneas 2 y 4) Bus: 16, 21, 61  Servicio Bicimad, para consultar la estación más cercana, acceda al mapa de geolocalización de las estaciones.",,,,Metro: San Bernardo (líneas 2 y 4),San Bernardo,"2
4","Bus: 16, 21, 61","16
21
61",5233,Instalación parcialmente accesible para personas con movilidad reducida,RODRIGUEZ SAN PEDRO,"Calle de Rodríguez San Pedro, Madrid",http://www.wikidata.org/entity/Q27031515,3,Madrid,http://www.wikidata.org/entity/Q1753102,MADRID,28015,Arapiles,http://www.wikidata.org/entity/Q10856744,Chamberí,http://www.wikidata.org/entity/Q1763370,40.43137597367309,-3.7064685006782208,,,/contenido/entidadesYorganismos/ParquesJardines,ParquesJardines
Jardines de la Plaza de Chamberí,,Jardines-de-la-Plaza-de-Chamberi,no,,,"Metro: Iglesia (línea 1) Bus: 3, 40 y 147  Servicio Bicimad, para consultar la estación más cercana, acceda al mapa de geolocalización de las estaciones.",,,,Metro: Iglesia (línea 1),Iglesia,1,"Bus: 3, 40 y 147","3
40
147",2650,Instalación parcialmente accesible para personas con movilidad reducida,CHAMBERI,calle CHAMBERI Madrid,,1,Madrid,http://www.wikidata.org/entity/Q1753102,MADRID,28010,Almagro,http://www.wikidata.org/entity/Q10954432,Chamberí,http://www.wikidata.org/entity/Q1763370,40.43285328749453,-3.697594475998512,,,/contenido/entidadesYorganismos/ParquesJardines,ParquesJardines
Jardines de la Plaza de España,,Jardines-de-la-Plaza-de-Espana,no especifica,,,"Metro: Plaza España (línea 2 y 3) Bus: 1, 2, 44, 74, C  Servicio Bicimad, para consultar la estación más cercana, acceda al mapa de geolocalización de las estaciones.",,,,Metro: Plaza España (línea 2 y 3),Plaza España,"2
3","Bus: 1, 2, 44, 74, C","1
2
44
74",195230,Instalación parcialmente accesible para personas con movilidad reducida,ESPAÑA,calle de Madrid,http://www.wikidata.org/entity/Q20908832,20,Madrid,http://www.wikidata.org/entity/Q1753102,MADRID,28008,Argüelles,http://www.wikidata.org/entity/Q64874,Moncloa-Aravaca,http://www.wikidata.org/entity/Q2017682,40.42372251184839,-3.7116577340508523,,,/contenido/entidadesYorganismos/ParquesJardines,ParquesJardines
Jardines de la Plaza de Olavide,,Jardines-de-la-Plaza-de-Olavide,no,,,"Metro: Bilbao (línea 1, 4) Bus: 3, 16, 37, 40, 61, 149  Servicio Bicimad, para consultar la estación más cercana, acceda al mapa de geolocalización de las estaciones.",,,,"Metro: Bilbao (línea 1, 4)",Bilbao,"1
4","Bus: 3, 16, 37, 40, 61, 149","3
16
37
40
61
149",5732,Instalación parcialmente accesible para personas con movilidad reducida,OLAVIDE,calle OLAVIDE Madrid,,16,Madrid,http://www.wikidata.org/entity/Q1753102,MADRID,28010,Trafalgar,http://www.wikidata.org/entity/Q10384027,Chamberí,http://www.wikidata.org/entity/Q1763370,40.43247362678542,-3.7007855621824293,,,/contenido/entidadesYorganismos/ParquesJardines,ParquesJardines
"Jardines de la Plaza de Oriente, Lepanto y Cabo Noval",,"Jardines-de-la-Plaza-de-Oriente,-Lepanto-y-Cabo-Noval",no,,,"Metro: Ópera (líneas 2, 5 y ramal) Autobús: 25, 39  Servicio Bicimad, para consultar la estación más cercana, acceda al mapa de geolocalización de las estaciones.",,,,"Metro: Ópera (líneas 2, 5 y ramal)",Ópera,"2
5","Autobús: 25, 39","25
39",29000,Instalación parcialmente accesible para personas con movilidad reducida,BAILEN,Bailén street,http://www.wikidata.org/entity/Q5740811,17,Madrid,http://www.wikidata.org/entity/Q1753102,MADRID,28013,Palacio,http://www.wikidata.org/entity/Q2136510,Centro,http://www.wikidata.org/entity/Q1763376,40.41835486065351,-3.712838830603048,,,/contenido/entidadesYorganismos/ParquesJardines,ParquesJardines
Jardines de la Plaza de la Villa de París,,Jardines-de-la-Plaza-de-la-Villa-de-Paris,sí,,,"Metro: Colón (línea 4) Bus: 5, 14, 21 ,27, 37, 45, 53, 150  Servicio Bicimad, para consultar la estación más cercana, acceda al mapa de geolocalización de las estaciones.",,,,Metro: Colón (línea 4),Colón,4,"Bus: 5, 14, 21 ,27, 37, 45, 53, 150","5
14
21
27
37
45
53
150",10700,Instalación parcialmente accesible para personas con movilidad reducida,GENERAL CASTAÑOS,calle del General Castaños,http://www.wikidata.org/entity/Q29413544,6,Madrid,http://www.wikidata.org/entity/Q1753102,MADRID,28004,Justicia,http://www.wikidata.org/entity/Q1992319,Centro,http://www.wikidata.org/entity/Q1763376,40.42620255233654,-3.6934468983675846,,,/contenido/entidadesYorganismos/ParquesJardines,ParquesJardines
Jardines del Doctor Fleming,,Jardines-del-Doctor-Fleming,no especifica,,,"Metro: Cuzco (línea 10) Bus: 27, 40 , 126, 147 y 150  Servicio Bicimad, para consultar la estación más cercana, acceda al mapa de geolocalización de las estaciones.",,,,Metro: Cuzco (línea 10),Cuzco,10,"Bus: 27, 40 , 126, 147 y 150","27
40
126
147
150",7363,Instalación parcialmente accesible para personas con movilidad reducida,DOCTOR FLEMING,"Calle del Doctor Fleming, Madrid",http://www.wikidata.org/entity/Q28740159,1,Madrid,http://www.wikidata.org/entity/Q1753102,MADRID,28036,Hispanoamérica,http://www.wikidata.org/entity/Q3814573,Chamartín,http://www.wikidata.org/entity/Q1766348,40.45454215758879,-3.6893863385035783,,,/contenido/entidadesYorganismos/ParquesJardines,ParquesJardines
Jardines del Mundial. Castellana,,Jardines-del-Mundial.-Castellana,no especifica,,,"Metro: Santiago Bernabéu (línea 10) Bús: 14, 27, 40, 126, 147, 150  Servicio Bicimad, para consultar la estación más cercana, acceda al mapa de geolocalización de las estaciones.",,,,Metro: Santiago Bernabéu (línea 10),Santiago Bernabéu,"10
14
27
40
126
147
150",,,3547,Instalación parcialmente accesible para personas con movilidad reducida,CASTELLANA,calle CASTELLANA Madrid,,142,Madrid,http://www.wikidata.org/entity/Q1753102,MADRID,28046,Hispanoamérica,http://www.wikidata.org/entity/Q3814573,Chamartín,http://www.wikidata.org/entity/Q1766348,40.4530917282714,-3.6893833082867062,,,/contenido/entidadesYorganismos/ParquesJardines,ParquesJardines
Jardines del Príncipe de Anglona,,Jardines-del-Principe-de-Anglona,no especifica,,,"Metro: La Latina (línea 5) Bus: 3 , 31 , 50 , 65 , 148   Servicio Bicimad, para consultar la estación más cercana, acceda al mapa de geolocalización de las estaciones.",,,,Metro: La Latina (línea 5),La Latina,5,"Bus: 3 , 31 , 50 , 65 , 148","3
31
50
65
148",678,Instalación parcialmente accesible para personas con movilidad reducida,PAJA,calle PAJA Madrid,,6,Madrid,http://www.wikidata.org/entity/Q1753102,MADRID,28005,Palacio,http://www.wikidata.org/entity/Q2136510,Centro,http://www.wikidata.org/entity/Q1763376,40.413417349090764,-3.711466649831885,,,/contenido/entidadesYorganismos/ParquesJardines,ParquesJardines
Jardín Botánico de Pradolongo,,Jardin-Botanico-de-Pradolongo,no especifica,,,"Metro: Hospital Doce de Octubre (línea 3) Bus: 6 , 60 , 78 , 81 , 121 , 131 RENFE: Doce de Octubre  Servicio Bicimad, para consultar la estación más cercana, acceda al mapa de geolocalización de las estaciones.",doce de octubre C5,C-5,doce de octubre,Metro: Hospital Doce de Octubre (línea 3),Hospital Doce de Octubre,3,"Bus: 6 , 60 , 78 , 81 , 121 , 131","6
60
78
81
121
131",,Instalación parcialmente accesible para personas con movilidad reducida,RAFAELA YBARRA,calle RAFAELA YBARRA Madrid,,0,Madrid,http://www.wikidata.org/entity/Q1753102,MADRID,28026,Pradolongo,http://www.wikidata.org/entity/Q10352360,Usera,http://www.wikidata.org/entity/Q953368,40.373745996607155,-3.712180056298639,,,/contenido/entidadesYorganismos/ParquesJardines/ColeccionesBotanicas,ParquesJardines
Jardín Concejal Alejandro Muñoz Revenga,,Jardin-Concejal-Alejandro-Munoz-Revenga,no,,,"Bus: 2, 16, 61 y 202  Servicio Bicimad, para consultar la estación más cercana, acceda al mapa de geolocalización de las estaciones.",,,,,,,"Bus: 2, 16, 61 y 202","2
16
61
202",2713,Instalación parcialmente accesible para personas con movilidad reducida,MELENDEZ VALDES,Calle de Meléndez Valdés,http://www.wikidata.org/entity/Q27031533,32,Madrid,http://www.wikidata.org/entity/Q1753102,MADRID,28015,Gaztambide,http://www.wikidata.org/entity/Q10288587,Chamberí,http://www.wikidata.org/entity/Q1763370,40.43304334055123,-3.712227582685096,,,/contenido/entidadesYorganismos/ParquesJardines,ParquesJardines
Jardín Fachada Pirámides I,,Jardin-Fachada-Piramides-I,no especifica,,,"Metro: Pirámides (Linea 5) Bus: 18, 23 , 34, 35, 36, 116, 118, 119  Servicio Bicimad, para consultar la estación más cercana, acceda al mapa de geolocalización de las estaciones.",,,,Metro: Pirámides (Linea 5),Pirámides,5,"Bus: 18, 23 , 34, 35, 36, 116, 118, 119","18
23
34
35
36
116
118
119",3104,Instalación parcialmente accesible para personas con movilidad reducida,ACACIAS,"Calle de Moratines, Madrid",http://www.wikidata.org/entity/Q52382443,60,Madrid,http://www.wikidata.org/entity/Q1753102,MADRID,28005,Las Acacias,http://www.wikidata.org/entity/Q3319190,Arganzuela,http://www.wikidata.org/entity/Q2000929,40.40148810908036,-3.713132255123738,,,/contenido/entidadesYorganismos/ParquesJardines,ParquesJardines
Jardín Glorieta de Azorín,,Jardin-Glorieta-de-Azorin,no especifica,,,"Bus: 31 , 41 , 50 , 65  Servicio Bicimad, para consultar la estación más cercana, acceda al mapa de geolocalización de las estaciones.",,,,,,,"Bus: 31 , 41 , 50 , 65","31
41
50
65",2896,Instalación parcialmente accesible para personas con movilidad reducida,VEGA,"Calle de Lope de Vega, Madrid",http://www.wikidata.org/entity/Q19800989,3,Madrid,http://www.wikidata.org/entity/Q1753102,MADRID,28013,Palacio,http://www.wikidata.org/entity/Q2136510,Centro,http://www.wikidata.org/entity/Q1763376,40.414757673901924,-3.7161718357850444,,,/contenido/entidadesYorganismos/ParquesJardines,ParquesJardines
Jardín Jazmín,,Jardin-Jazmin,sí,,,"Bus: 29, 125, 129, 150  Servicio Bicimad, para consultar la estación más cercana, acceda al mapa de geolocalización de las estaciones.",,,,,,,"Bus: 29, 125, 129, 150","29
125
129
150",59734,Instalación parcialmente accesible para personas con movilidad reducida,ROQUETAS DE MAR,calle ROQUETAS DE MAR Madrid,,10,Madrid,http://www.wikidata.org/entity/Q1753102,MADRID,28033,Apóstol Santiago,http://www.wikidata.org/entity/Q11906303,Hortaleza,http://www.wikidata.org/entity/Q1928529,40.481785094079584,-3.660098332215654,,,/contenido/entidadesYorganismos/ParquesJardines,ParquesJardines
Jardín de Embajadores M-30,,Jardin-de-Embajadores-M-30,sí,,,"Bus: 62 y 88  Servicio Bicimad, para consultar la estación más cercana, acceda al mapa de geolocalización de las estaciones.",,,,,,,Bus: 62 y 88,"62
88",8222,Instalación parcialmente accesible para personas con movilidad reducida,PUERTO DE LA CRUZ VERDE,calle PUERTO DE LA CRUZ VERDE Madrid,,29,Madrid,http://www.wikidata.org/entity/Q1753102,MADRID,28045,Legazpi,http://www.wikidata.org/entity/Q3773990,Arganzuela,http://www.wikidata.org/entity/Q2000929,40.38418473435094,-3.685817452497564,,,/contenido/entidadesYorganismos/ParquesJardines,ParquesJardines
"Jardín de Larra, Madrid",http://www.wikidata.org/entity/Q117839128,Jardin-de-Larra,no especifica,,,"Metro: Opera (líneas 2, 5 y ramal) Bus: 3, 148  Servicio Bicimad, para consultar la estación más cercana, acceda al mapa de geolocalización de las estaciones.",,,,"Metro: Opera (líneas 2, 5 y ramal)",Opera,"2
5","Bus: 3, 148","3
148",5599,Instalación parcialmente accesible para personas con movilidad reducida,FACTOR,"Calle del Factor, Madrid",http://www.wikidata.org/entity/Q30801866,7,Madrid,http://www.wikidata.org/entity/Q1753102,MADRID,28013,Palacio,http://www.wikidata.org/entity/Q2136510,Centro,http://www.wikidata.org/entity/Q1763376,40.41631909566782,-3.712793771176405,,,/contenido/entidadesYorganismos/ParquesJardines,ParquesJardines
Jardín de la Colonia Congosto,,Jardin-de-la-Colonia-Congosto,no,,,"Metro: Congosto (línea 1) Bus: 54 y L1  Servicio Bicimad, para consultar la estación más cercana, acceda al mapa de geolocalización de las estaciones.",,,,Metro: Congosto (línea 1),Congosto,1,Bus: 54 y L1,"54
1",6653,Instalación parcialmente accesible para personas con movilidad reducida,CONGOSTO,calle CONGOSTO Madrid,,70,Madrid,http://www.wikidata.org/entity/Q1753102,MADRID,28031,Casco Histórico de Vallecas,http://www.wikidata.org/entity/Q16544370,Villa de Vallecas,http://www.wikidata.org/entity/Q1947988,40.37089825532696,-3.618365854832584,,,/contenido/entidadesYorganismos/ParquesJardines,ParquesJardines
Jardín de la Transición Española,,Jardin-de-la-Transicion-Espanola,no especifica,,,"Metro: Gregorio Marañón (líneas 7 y 10) Bús: 7, 12, 14, 27, 40, 45, 147 y 150  Servicio Bicimad, para consultar la estación más cercana, acceda al mapa de geolocalización de las estaciones.",,,,Metro: Gregorio Marañón (líneas 7 y 10),Gregorio Marañón,"7
10
12
14
27
40
45
147
150",,,10300,Instalación parcialmente accesible para personas con movilidad reducida,CASTELLANA,calle CASTELLANA Madrid,,78,Madrid,http://www.wikidata.org/entity/Q1753102,MADRID,28046,El Viso,http://www.wikidata.org/entity/Q4778,Chamartín,http://www.wikidata.org/entity/Q1766348,40.4390037057741,-3.6905481652485355,,,/contenido/entidadesYorganismos/ParquesJardines,ParquesJardines
Jardín del Bulevar de Peña Gorbea,,Jardin-del-Bulevar-de-Pena-Gorbea,no especifica,,,"Metro: Puente Vallecas (línea 1) Bus: 10, 24, 54, 57, 58, 310 y 410  Servicio Bicimad, para consultar la estación más cercana, acceda al mapa de geolocalización de las estaciones.",,,,Metro: Puente Vallecas (línea 1),Puente Vallecas,1,"Bus: 10, 24, 54, 57, 58, 310 y 410","10
24
54
57
58
310
410",4247,Instalación parcialmente accesible para personas con movilidad reducida,PEÑA GORBEA,calle PEÑA GORBEA Madrid,,17,Madrid,http://www.wikidata.org/entity/Q1753102,MADRID,28053,San Diego,http://www.wikidata.org/entity/Q11946851,Puente de Vallecas,http://www.wikidata.org/entity/Q2003054,40.3957812018463,-3.6670346724676173,,,/contenido/entidadesYorganismos/ParquesJardines,ParquesJardines
Jardín del Templo de Debod,,Jardin-del-Templo-de-Debod,no,,,"Metro: Plaza de España (líneas 3 y 10), Ventura Rodríguez (línea 3) Bus: 25, 33, 39, 46, 74, 75, 148  Servicio Bicimad, para consultar la estación más cercana, acceda al mapa de geolocalización de las estaciones.",,,,"Metro: Plaza de España (líneas 3 y 10), Ventura Rodríguez (línea 3)","Plaza de España , Ventura Rodríguez","3
10","Bus: 25, 33, 39, 46, 74, 75, 148","25
33
39
46
74
75
148",58512,Instalación parcialmente accesible para personas con movilidad reducida,FERRAZ,calle de Ferraz,http://www.wikidata.org/entity/Q5740837,1,Madrid,http://www.wikidata.org/entity/Q1753102,MADRID,28008,Casa de Campo,http://www.wikidata.org/entity/Q16302441,Moncloa-Aravaca,http://www.wikidata.org/entity/Q2017682,40.42425096551599,-3.716531855540272,,,/contenido/entidadesYorganismos/ParquesJardines,ParquesJardines
Jardín del paseo Federico García Lorca,,Jardin-del-paseo-Federico-Garcia-Lorca,no,,,"Metro: Villa Vallecas (línea 1) Bus: 54 , 58 , 103 , 142 , 143 , N9 , L1  Servicio Bicimad, para consultar la estación más cercana, acceda al mapa de geolocalización de las estaciones.",,,,Metro: Villa Vallecas (línea 1),Villa Vallecas,1,"Bus: 54 , 58 , 103 , 142 , 143 , N9 , L1","54
58
103
142
143
9
1",2406,Instalación parcialmente accesible para personas con movilidad reducida,FEDERICO GARCIA LORCA,calle FEDERICO GARCIA LORCA Madrid,,21,Madrid,http://www.wikidata.org/entity/Q1753102,MADRID,28031,Casco Histórico de Vallecas,http://www.wikidata.org/entity/Q16544370,Villa de Vallecas,http://www.wikidata.org/entity/Q1947988,40.37740868500615,-3.6206400361863036,,,/contenido/entidadesYorganismos/ParquesJardines,ParquesJardines
Jardín el Torero,,Jardin-el-Torero,sí,,,"Bus: 23 , 55 , 60  Servicio Bicimad, para consultar la estación más cercana, acceda al mapa de geolocalización de las estaciones.",,,,,,,"Bus: 23 , 55 , 60","23
55
60",7130,Instalación parcialmente accesible para personas con movilidad reducida,TORERO,"Avenida de los Toreros, Madrid",http://www.wikidata.org/entity/Q29918658,6,Madrid,http://www.wikidata.org/entity/Q1753102,MADRID,28026,Moscardó,http://www.wikidata.org/entity/Q11937679,Usera,http://www.wikidata.org/entity/Q953368,40.39218269145896,-3.7056345651289417,,,/contenido/entidadesYorganismos/ParquesJardines,ParquesJardines
Jardín histórico El Capricho de la Alameda Osuna,,Jardin-historico-El-Capricho-de-la-Alameda-Osuna,no especifica,,,"Metro: El Capricho (linea 5) Autobús: 101, 105 y 151  Servicio Bicimad, para consultar la estación más cercana, acceda al mapa de geolocalización de las estaciones.",,,,Metro: El Capricho (linea 5),El Capricho,5,"Autobús: 101, 105 y 151","101
105
151",171630,Instalación parcialmente accesible para personas con movilidad reducida,ALAMEDA DE OSUNA,calle ALAMEDA DE OSUNA Madrid,,25,Madrid,http://www.wikidata.org/entity/Q1753102,MADRID,28042,Alameda de Osuna,http://www.wikidata.org/entity/Q760737,Barajas,http://www.wikidata.org/entity/Q807230,40.45446361509569,-3.6000964360303476,,parqueshistoricos@madrid.es,/contenido/entidadesYorganismos/ParquesJardines/ParquesHistoricos,ParquesJardines
Palacio de Cristal de la Arganzuela: Invernadero,,Palacio-de-Cristal-de-la-Arganzuela:-Invernadero,no especifica,,,"Metro: Legazpi (Línea 3 y línea 6) Bus: 6, 18, 19, 45, 47, 59, 62, 76, 78, 86, 148, 247  Servicio Bicimad, para consultar la estación más cercana, acceda al mapa de geolocalización de las estaciones.",,,,Metro: Legazpi (Línea 3 y línea 6),Legazpi,"3
6","Bus: 6, 18, 19, 45, 47, 59, 62, 76, 78, 86, 148, 247","6
18
19
45
47
59
62
76
78
86
148
247",7100,Instalación parcialmente accesible para personas con movilidad reducida,CHOPERA,"Paseo de la Chopera, Madrid",http://www.wikidata.org/entity/Q27044458,10,Madrid,http://www.wikidata.org/entity/Q1753102,MADRID,28045,La Chopera,http://www.wikidata.org/entity/Q3773750,Arganzuela,http://www.wikidata.org/entity/Q2000929,40.3933877847248,-3.698565632659468,,,/contenido/entidadesYorganismos/ParquesJardines/ColeccionesBotanicas,ParquesJardines
Parque Agustín Rodríguez Sahagún y Parque de los Pinos,,Parque-Agustin-Rodriguez-Sahagun-y-Parque-de-los-Pinos,sí,,,"Bus: 49 , 126 , 128  Servicio Bicimad, para consultar la estación más cercana, acceda al mapa de geolocalización de las estaciones.",,,,,,,"Bus: 49 , 126 , 128","49
126
128",185040,Instalación parcialmente accesible para personas con movilidad reducida,DIRECCION,paseo de la Dirección,http://www.wikidata.org/entity/Q27043701,301,Madrid,http://www.wikidata.org/entity/Q1753102,MADRID,28029,Valdeacederas,http://www.wikidata.org/entity/Q10388711,Tetuán,http://www.wikidata.org/entity/Q1773540,40.47022952429582,-3.7038792453996385,,,/contenido/entidadesYorganismos/ParquesJardines,ParquesJardines
Parque Alcalde Jesús Pérez Quijano,,Parque-Alcalde-Jesus-Perez-Quijano,sí,,,"Metro: Valdebernardo (línea 9) Bus: 20  Servicio Bicimad, para consultar la estación más cercana, acceda al mapa de geolocalización de las estaciones.",,,,Metro: Valdebernardo (línea 9),Valdebernardo,9,Bus: 20,20,55222,Instalación parcialmente accesible para personas con movilidad reducida,LADERA DE LOS ALMENDROS,calle LADERA DE LOS ALMENDROS Madrid,,0,Madrid,http://www.wikidata.org/entity/Q1753102,MADRID,28032,Casco Histórico de Vicálvaro,http://www.wikidata.org/entity/Q16544374,Vicálvaro,http://www.wikidata.org/entity/Q589403,40.40418961057298,-3.622901144863193,,,/contenido/entidadesYorganismos/ParquesJardines,ParquesJardines
Parque Alfredo Kraus,,Parque-Alfredo-Kraus,no especifica,,,"Metro: 'Mar de Cristal', líneas 4 y 8 Autobuses: 87, 120, 125 y 172  Servicio Bicimad, para consultar la estación más cercana, acceda al mapa de geolocalización de las estaciones.",,,,"Metro: 'Mar de Cristal', líneas 4 y 8","'Mar de Cristal', líneas 4 y 8","4
8","buses: 87, 120, 125 y 172","87
120
125
172",38000,Instalación parcialmente accesible para personas con movilidad reducida,MAR ADRIATICO,calle MAR ADRIATICO Madrid,,5,Madrid,http://www.wikidata.org/entity/Q1753102,MADRID,28033,Pinar del Rey,http://www.wikidata.org/entity/Q10349788,Hortaleza,http://www.wikidata.org/entity/Q1928529,40.47098300036034,-3.6393251567222045,,,/contenido/entidadesYorganismos/ParquesJardines,ParquesJardines
Parque Aluche - Poblados,,Parque-Aluche---Poblados,sí,,,"Metro: Aluche (linea 5) Bus: 17, 117, 139 Renfe: Aluche  Servicio Bicimad, para consultar la estación más cercana, acceda al mapa de geolocalización de las estaciones.",Renfe: Aluche C5,C-5,Aluche,Metro: Aluche (linea 5),Aluche,5,"Bus: 17, 117, 139","17
117
139",24003,Instalación parcialmente accesible para personas con movilidad reducida,GUAREÑA,calle GUAREÑA Madrid,,22,Madrid,http://www.wikidata.org/entity/Q1753102,MADRID,28044,Las Águilas,http://www.wikidata.org/entity/Q5971372,Latina,http://www.wikidata.org/entity/Q794954,40.38543450752234,-3.765190215590101,,,/contenido/entidadesYorganismos/ParquesJardines,ParquesJardines
Parque Alzola,,Parque-Alzola,no,,,"Bus: 60 , 131  Servicio Bicimad, para consultar la estación más cercana, acceda al mapa de geolocalización de las estaciones.",,,,,,,"Bus: 60 , 131","60
131",10495,Instalación parcialmente accesible para personas con movilidad reducida,BEASAIN,calle de Beasain,http://www.wikidata.org/entity/Q118630454,2,Madrid,http://www.wikidata.org/entity/Q1753102,MADRID,28041,Orcasitas,http://www.wikidata.org/entity/Q3773941,Usera,http://www.wikidata.org/entity/Q953368,40.36716919688689,-3.7136655626692887,,,/contenido/entidadesYorganismos/ParquesJardines,ParquesJardines
Parque Antonio Pirala,,Parque-Antonio-Pirala,sí,,,"Metro: Carmen, Ventas (linea 5 y linea 2) Bus: 38, 106, 110, 146, 210  Servicio Bicimad, para consultar la estación más cercana, acceda al mapa de geolocalización de las estaciones.",,,,"Metro: Carmen, Ventas (linea 5 y linea 2)","Carmen, Ventas","5
2","Bus: 38, 106, 110, 146, 210","38
106
110
146
210",21675,Instalación parcialmente accesible para personas con movilidad reducida,ANTONIO PIRALA,calle ANTONIO PIRALA Madrid,,8,Madrid,http://www.wikidata.org/entity/Q1753102,MADRID,28017,Ventas,http://www.wikidata.org/entity/Q71762,Ciudad Lineal,http://www.wikidata.org/entity/Q1763694,40.428652595625735,-3.659649292346212,,,/contenido/entidadesYorganismos/ParquesJardines,ParquesJardines
Parque Anunciación,,Parque-Anunciacion,no especifica,,,"Bus: 20, 26, 63.  Servicio Bicimad, para consultar la estación más cercana, acceda al mapa de geolocalización de las estaciones.",,,,,,,"Bus: 20, 26, 63","20
26
63",4088,Instalación parcialmente accesible para personas con movilidad reducida,ANUNCIACION,calle ANUNCIACION Madrid,,1,Madrid,http://www.wikidata.org/entity/Q1753102,MADRID,28009,Niño Jesús,http://www.wikidata.org/entity/Q3773746,Retiro,http://www.wikidata.org/entity/Q2002296,40.41192841997151,-3.67583331713166,,,/contenido/entidadesYorganismos/ParquesJardines,ParquesJardines
Parque Arquitecto Antonio Palacios,,Parque-Arquitecto-Antonio-Palacios,no,,,"Metro: Torre Arias (línea 5) Bus: 28, 48  Servicio Bicimad, para consultar la estación más cercana, acceda al mapa de geolocalización de las estaciones.",,,,Metro: Torre Arias (línea 5),Torre Arias,5,"Bus: 28, 48","28
48",13850,Instalación parcialmente accesible para personas con movilidad reducida,FENELON,calle FENELON Madrid,,17,Madrid,http://www.wikidata.org/entity/Q1753102,MADRID,28022,Canillejas,http://www.wikidata.org/entity/Q663013,San Blas-Canillejas,http://www.wikidata.org/entity/Q2001937,40.43847239256322,-3.6087501533089923,,,/contenido/entidadesYorganismos/ParquesJardines,ParquesJardines
Parque Arroyo Fontarrón,,Parque-Arroyo-Fontarron,no,,,"Bus: 8, 20, 30, 100  Servicio Bicimad, para consultar la estación más cercana, acceda al mapa de geolocalización de las estaciones.",,,,,,,"Bus: 8, 20, 30, 100","8
20
30
100",35450,Instalación parcialmente accesible para personas con movilidad reducida,ARROYO FONTARRON,calle ARROYO FONTARRON Madrid,,22,Madrid,http://www.wikidata.org/entity/Q1753102,MADRID,28030,Pavones,http://www.wikidata.org/entity/Q71760,Moratalaz,http://www.wikidata.org/entity/Q2076109,40.39476596114844,-3.6361646051817518,,,/contenido/entidadesYorganismos/ParquesJardines,ParquesJardines
Parque Arroyo Fresno - Tomás y Valiente,,Parque-Arroyo-Fresno---Tomas-y-Valiente,sí,,,"Bus: 49  Servicio Bicimad, para consultar la estación más cercana, acceda al mapa de geolocalización de las estaciones.",,,,,,,Bus: 49,49,107657,Accesible,VENTISQUERO DE LA CONDESA,calle VENTISQUERO DE LA CONDESA Madrid,,43,Madrid,http://www.wikidata.org/entity/Q1753102,MADRID,28035,Mirasierra,http://www.wikidata.org/entity/Q31134,Fuencarral-El Pardo,http://www.wikidata.org/entity/Q656196,40.49284296962057,-3.7169069720385446,,,/contenido/entidadesYorganismos/ParquesJardines,ParquesJardines
Parque Arroyo Pozuelo,,Parque-Arroyo-Pozuelo,sí,,,"Transporte más próximo:  Autobús: 160  Otros trasportes cercanos:  Autobús: 161 Autobús interurbano: 658 Tren: Estación de Aravaca (Líneas C-7 y C-10) Metro-ligero/Tranvía: Estación de Aravaca (Línea 2)  Servicio Bicimad, para consultar la estación más cercana, acceda al mapa de geolocalización de las estaciones.",Aravaca C7 C10,"C-7
C-10",Aravaca,Metro-ligero/Tranvía: Estación de Aravaca (Línea 2),Metro-ligero/Tranvía: Estación de Aravaca,2,Autobús interurbano: 658,658,78802,Instalación parcialmente accesible para personas con movilidad reducida,Arroyo Pozuelo,calle Arroyo Pozuelo Madrid,,,Madrid,http://www.wikidata.org/entity/Q1753102,MADRID,,,,Moncloa-Aravaca,http://www.wikidata.org/entity/Q2017682,40.45451429342977,-3.7856220495572703,,,/contenido/entidadesYorganismos/ParquesJardines,ParquesJardines
Parque Arroyo de los Pinos,,Parque-Arroyo-de-los-Pinos,no,,,"Metro: Antonio Machado (linea 7) Bus: 132  Servicio Bicimad, para consultar la estación más cercana, acceda al mapa de geolocalización de las estaciones.",,,,Metro: Antonio Machado (linea 7),Antonio Machado,7,Bus: 132,132,25798,Instalación parcialmente accesible para personas con movilidad reducida,JOAQUIN LORENZO,calle JOAQUIN LORENZO Madrid,,21,Madrid,http://www.wikidata.org/entity/Q1753102,MADRID,28035,Peñagrande,http://www.wikidata.org/entity/Q3319582,Fuencarral-El Pardo,http://www.wikidata.org/entity/Q656196,40.47343735166941,-3.7241915440169024,,,/contenido/entidadesYorganismos/ParquesJardines,ParquesJardines
Parque Avenida de Portugal,,Parque-Avenida-de-Portugal,no especifica,,,"Bus: 25, 33, 31, 36, 39, 65, 138  Servicio Bicimad, para consultar la estación más cercana, acceda al mapa de geolocalización de las estaciones.",,,,,,,"Bus: 25, 33, 31, 36, 39, 65, 138","25
33
31
36
39
65
138",30719,Instalación parcialmente accesible para personas con movilidad reducida,A-5,Avinguda de Madrid,http://www.wikidata.org/entity/Q30454326,300,Madrid,http://www.wikidata.org/entity/Q1753102,MADRID,28011,Puerta del Ángel,http://www.wikidata.org/entity/Q31142,Latina,http://www.wikidata.org/entity/Q794954,40.41214880704316,-3.7356620312409365,,,/contenido/entidadesYorganismos/ParquesJardines,ParquesJardines
Parque Azorín,,Parque-Azorin,sí,,,"Metro: Buenos Aires (línea 1) Bus: 10, 54, 58, 103, 136  Servicio Bicimad, para consultar la estación más cercana, acceda al mapa de geolocalización de las estaciones.",,,,Metro: Buenos Aires (línea 1),Buenos Aires,1,"Bus: 10, 54, 58, 103, 136","10
54
58
103
136",47434,Instalación parcialmente accesible para personas con movilidad reducida,ALBUFERA,Avenida de la Albufera,http://www.wikidata.org/entity/Q5714221,142,Madrid,http://www.wikidata.org/entity/Q1753102,MADRID,28038,Palomeras Bajas,http://www.wikidata.org/entity/Q10343902,Puente de Vallecas,http://www.wikidata.org/entity/Q2003054,40.39144717132174,-3.6545377410677498,,,/contenido/entidadesYorganismos/ParquesJardines,ParquesJardines
Parque Barrio Las Musas,,Parque-Barrio-Las-Musas,no,,,"Metro: Las Musas (linea 7) Bus: 38, 140   Servicio Bicimad, para consultar la estación más cercana, acceda al mapa de geolocalización de las estaciones.",,,,Metro: Las Musas (linea 7),Las Musas,7,"Bus: 38, 140","38
140",8818,Instalación parcialmente accesible para personas con movilidad reducida,NIZA,"Avenida de Niza, Madrid",http://www.wikidata.org/entity/Q28972102,55,Madrid,http://www.wikidata.org/entity/Q1753102,MADRID,28022,Rosas,http://www.wikidata.org/entity/Q18880469,San Blas-Canillejas,http://www.wikidata.org/entity/Q2001937,40.43173953068984,-3.607628369908832,,,/contenido/entidadesYorganismos/ParquesJardines,ParquesJardines
Parque Biosaludable,,Parque-Biosaludable,sí,,,"Metro: El Capricho (línea 5) Bus: 101, 114, 115 y 151  Servicio Bicimad, para consultar la estación más cercana, acceda al mapa de geolocalización de las estaciones.",,,,Metro: El Capricho (línea 5),El Capricho,5,"Bus: 101, 114, 115 y 151","101
114
115
151",95955,Instalación parcialmente accesible para personas con movilidad reducida,ALAMEDA DE OSUNA,calle ALAMEDA DE OSUNA Madrid,,8,Madrid,http://www.wikidata.org/entity/Q1753102,MADRID,28042,Alameda de Osuna,http://www.wikidata.org/entity/Q760737,Barajas,http://www.wikidata.org/entity/Q807230,40.452057731817305,-3.6036483614197765,,,/contenido/entidadesYorganismos/ParquesJardines,ParquesJardines
Parque Campo de la Paloma,,Parque-Campo-de-la-Paloma,no,,,,,,,,,,,,38010,Instalación parcialmente accesible para personas con movilidad reducida,RAFAEL ALBERTI,calle RAFAEL ALBERTI Madrid,,38,Madrid,http://www.wikidata.org/entity/Q1753102,MADRID,28018,Palomeras Sureste,http://www.wikidata.org/entity/Q10343901,Puente de Vallecas,http://www.wikidata.org/entity/Q2003054,40.38339946706653,-3.643762543356842,,,/contenido/entidadesYorganismos/ParquesJardines,ParquesJardines
Parque Cerro Peñabel,,Parque-Cerro-Penabel,no,,,"Bus: 42, 132 y 137  Servicio Bicimad, para consultar la estación más cercana, acceda al mapa de geolocalización de las estaciones.",,,,,,,"Bus: 42, 132 y 137","42
132
137",24366,Instalación parcialmente accesible para personas con movilidad reducida,CANDIDO MATEOS,calle CANDIDO MATEOS Madrid,,12,Madrid,http://www.wikidata.org/entity/Q1753102,MADRID,28035,Peñagrande,http://www.wikidata.org/entity/Q3319582,Fuencarral-El Pardo,http://www.wikidata.org/entity/Q656196,40.47406043289477,-3.718181785566969,,,/contenido/entidadesYorganismos/ParquesJardines,ParquesJardines
Parque Cerro Águila,,Parque-Cerro-aguila,no especifica,,,"Bus: 160  Servicio Bicimad, para consultar la estación más cercana, acceda al mapa de geolocalización de las estaciones.",,,,,,,Bus: 160,160,,Instalación parcialmente accesible para personas con movilidad reducida,CERRO DEL AGUILA,calle CERRO DEL AGUILA Madrid,,1,Madrid,http://www.wikidata.org/entity/Q1753102,MADRID,28023,Aravaca,http://www.wikidata.org/entity/Q3314682,Moncloa-Aravaca,http://www.wikidata.org/entity/Q2017682,40.45190771190827,-3.761757187185669,,,/contenido/entidadesYorganismos/ParquesJardines,ParquesJardines
Parque Concejal Miguel Martín Vela,,Parque-Concejal-Miguel-Martin-Vela,no,,,"Bus: 601  Servicio Bicimad, para consultar la estación más cercana, acceda al mapa de geolocalización de las estaciones.",,,,,,,Bus: 601,601,33954,Instalación parcialmente accesible para personas con movilidad reducida,GUARDIA,calle GUARDIA Madrid,,4,Madrid,http://www.wikidata.org/entity/Q1753102,MADRID,28048,El Pardo,http://www.wikidata.org/entity/Q3314337,Fuencarral-El Pardo,http://www.wikidata.org/entity/Q656196,40.5186002228516,-3.7753787533567573,,,/contenido/entidadesYorganismos/ParquesJardines,ParquesJardines
Parque Cuesta del Galbán,,Parque-Cuesta-del-Galban,no especifica,,,"Bus: 160  Servicio Bicimad, para consultar la estación más cercana, acceda al mapa de geolocalización de las estaciones.",,,,,,,Bus: 160,160,70882,Instalación parcialmente accesible para personas con movilidad reducida,GALBAN,calle GALBAN Madrid,,2,Madrid,http://www.wikidata.org/entity/Q1753102,MADRID,28023,Aravaca,http://www.wikidata.org/entity/Q3314682,Moncloa-Aravaca,http://www.wikidata.org/entity/Q2017682,40.45019927443574,-3.768070614824996,,,/contenido/entidadesYorganismos/ParquesJardines,ParquesJardines
Parque Cuña Verde de Vicálvaro. Zona A,,Parque-Cuna-Verde-de-Vicalvaro.-Zona-A,sí,,,"Metro: Vicálvaro (linea 9) Bus: E3  Servicio Bicimad, para consultar la estación más cercana, acceda al mapa de geolocalización de las estaciones.",,,,Metro: Vicálvaro (linea 9),Vicálvaro,9,Bus: E3,3,41293,Instalación parcialmente accesible para personas con movilidad reducida,DAROCA,calle DAROCA Madrid,,300,Madrid,http://www.wikidata.org/entity/Q1753102,MADRID,28032,Ambroz,http://www.wikidata.org/entity/Q11905294,Vicálvaro,http://www.wikidata.org/entity/Q589403,40.40969329689759,-3.618025439807104,,,/contenido/entidadesYorganismos/ParquesJardines,ParquesJardines
Parque Cuña Verde de Vicálvaro. Zona B,,Parque-Cuna-Verde-de-Vicalvaro.-Zona-B,sí,,,"Metro: San Cipriano (linea 9) Bus: 4 , E3, 100  Servicio Bicimad, para consultar la estación más cercana, acceda al mapa de geolocalización de las estaciones.",,,,Metro: San Cipriano (linea 9),San Cipriano,9,"Bus: 4 , E3, 100","4
3
100",115119,Instalación parcialmente accesible para personas con movilidad reducida,DAROCA,calle DAROCA Madrid,,299,Madrid,http://www.wikidata.org/entity/Q1753102,MADRID,28032,Ambroz,http://www.wikidata.org/entity/Q11905294,Vicálvaro,http://www.wikidata.org/entity/Q589403,40.40930295868704,-3.616890442862423,,,/contenido/entidadesYorganismos/ParquesJardines,ParquesJardines
Parque Cuña Verde de Vicálvaro. Zona C,,Parque-Cuna-Verde-de-Vicalvaro.-Zona-C,no,,,"Metro: Avenida de Guadalajara (línea 2) Bus: E2  Servicio Bicimad, para consultar la estación más cercana, acceda al mapa de geolocalización de las estaciones.",,,,Metro: Avenida de Guadalajara (línea 2),Avenida de Guadalajara,2,Bus: E2,2,127835,Instalación parcialmente accesible para personas con movilidad reducida,CANILLEJAS A VICALVARO,calle CANILLEJAS A VICALVARO Madrid,,102,Madrid,http://www.wikidata.org/entity/Q1753102,MADRID,28032,Casco Histórico de Vicálvaro,http://www.wikidata.org/entity/Q16544374,Vicálvaro,http://www.wikidata.org/entity/Q589403,40.41672706688541,-3.610853061814312,,,/contenido/entidadesYorganismos/ParquesJardines,ParquesJardines
Parque Duque de Ahumada,,Parque-Duque-de-Ahumada,no,,,"Metro: San Cipriano (línea 9)  Bus: 4 , 106  Servicio Bicimad, para consultar la estación más cercana, acceda al mapa de geolocalización de las estaciones.",,,,Metro: San Cipriano (línea 9),San Cipriano,9,"Bus: 4 , 106","4
106",5248,Instalación parcialmente accesible para personas con movilidad reducida,LAGO VAN,calle LAGO VAN Madrid,,16,Madrid,http://www.wikidata.org/entity/Q1753102,MADRID,28032,Casco Histórico de Vicálvaro,http://www.wikidata.org/entity/Q16544374,Vicálvaro,http://www.wikidata.org/entity/Q589403,40.4048457851104,-3.6062315414157613,,,/contenido/entidadesYorganismos/ParquesJardines,ParquesJardines
Parque El Cedral,,Parque-El-Cedral,sí,,,"Bus: 7, 9, 70, 72 y 87  Servicio Bicimad, para consultar la estación más cercana, acceda al mapa de geolocalización de las estaciones.",,,,,,,"Bus: 7, 9, 70, 72 y 87","7
9
70
72
87",6856,Instalación parcialmente accesible para personas con movilidad reducida,ARTURO SORIA,calle de Arturo Soria,http://www.wikidata.org/entity/Q8255504,233,Madrid,http://www.wikidata.org/entity/Q1753102,MADRID,28033,Atalaya,http://www.wikidata.org/entity/Q14193114,Ciudad Lineal,http://www.wikidata.org/entity/Q1763694,40.462882951414265,-3.6650441004626564,,,/contenido/entidadesYorganismos/ParquesJardines,ParquesJardines
Parque El Cruce,,Parque-El-Cruce,sí,,,"Metro: Villaverde Bajo - Cruce (línea 3) Autobús: 18, 22, 86, 116 y 130  Servicio Bicimad, para consultar la estación más cercana, acceda al mapa de geolocalización de las estaciones.",,,,Metro: Villaverde Bajo - Cruce (línea 3),Villaverde Bajo - Cruce,3,"Autobús: 18, 22, 86, 116 y 130","18
22
86
116
130",,Instalación parcialmente accesible para personas con movilidad reducida,ALCOCER,avenida de Alberto Alcocer,http://www.wikidata.org/entity/Q26833742,1,Madrid,http://www.wikidata.org/entity/Q1753102,MADRID,28021,Los Ángeles,http://www.wikidata.org/entity/Q390462,Villaverde,http://www.wikidata.org/entity/Q919536,40.350970403692386,-3.6944891243298597,,,/contenido/entidadesYorganismos/ParquesJardines,ParquesJardines
Parque Este de Valdebernardo,,Parque-Este-de-Valdebernardo,no,,,"Metro: Valdebernardo (línea 9) Bus: 71  Servicio Bicimad, para consultar la estación más cercana, acceda al mapa de geolocalización de las estaciones.",,,,Metro: Valdebernardo (línea 9),Valdebernardo,9,Bus: 71,71,71585,Instalación parcialmente accesible para personas con movilidad reducida,DEMOCRACIA,calle DEMOCRACIA Madrid,,25,Madrid,http://www.wikidata.org/entity/Q1753102,MADRID,28031,Casco Histórico de Vicálvaro,http://www.wikidata.org/entity/Q16544374,Vicálvaro,http://www.wikidata.org/entity/Q589403,40.393429973468265,-3.6183833916362733,,,/contenido/entidadesYorganismos/ParquesJardines,ParquesJardines
Parque Eugenia de Montijo,,Parque-Eugenia-de-Montijo,sí,,,"Metro: Eugenia de Montijo (línea 5) Bus: 17 , 35 , 121 , 131 , 139  Servicio Bicimad, para consultar la estación más cercana, acceda al mapa de geolocalización de las estaciones.",,,,Metro: Eugenia de Montijo (línea 5),Eugenia de Montijo,5,"Bus: 17 , 35 , 121 , 131 , 139","17
35
121
131
139",72933,Instalación parcialmente accesible para personas con movilidad reducida,PARQUE EUGENIA DE MONTIJO,calle PARQUE EUGENIA DE MONTIJO Madrid,,3,Madrid,http://www.wikidata.org/entity/Q1753102,MADRID,28047,Vista Alegre,http://www.wikidata.org/entity/Q3813741,Carabanchel,http://www.wikidata.org/entity/Q1001991,40.37942623334737,-3.7527174453988774,,,/contenido/entidadesYorganismos/ParquesJardines,ParquesJardines
Parque Forestal Fuente Carrantona,,Parque-Forestal-Fuente-Carrantona,no,,,"Autobuses: E2, E4, 30, 100, 140 Metro: Alsacia (L2)  Servicio Bicimad, para consultar la estación más cercana, acceda al mapa de geolocalización de las estaciones.",,,,Metro: Alsacia (L2),Alsacia,2,"buses: E2, E4, 30, 100, 140","2
4
30
100
140",,Instalación parcialmente accesible para personas con movilidad reducida,FUENTE CARRANTONA,"Calle de la Fuente Carrantona, Madrid",http://www.wikidata.org/entity/Q28936137,38,Madrid,http://www.wikidata.org/entity/Q1753102,MADRID,28030,Horcajo,http://www.wikidata.org/entity/Q10293641,Moratalaz,http://www.wikidata.org/entity/Q2076109,40.410083041012584,-3.6297141827859876,,,/contenido/entidadesYorganismos/ParquesJardines,ParquesJardines
Parque General Fanjul - Santa Margarita,,Parque-General-Fanjul---Santa-Margarita,sí,,,"Bus: 17, 34, 39, 117, 139 Renfe: Las Águilas  Servicio Bicimad, para consultar la estación más cercana, acceda al mapa de geolocalización de las estaciones.",Renfe: Las Águilas C5,C-5,Las Águilas,,,,"Bus: 17, 34, 39, 117, 139","17
34
39
117
139",12166,Instalación parcialmente accesible para personas con movilidad reducida,DE LAS ÁGUILAS,calle DE LAS ÁGUILAS Madrid,,144,Madrid,http://www.wikidata.org/entity/Q1753102,MADRID,28044,Las Águilas,http://www.wikidata.org/entity/Q5971372,Latina,http://www.wikidata.org/entity/Q794954,40.38033890061462,-3.7834984766161837,,,/contenido/entidadesYorganismos/ParquesJardines,ParquesJardines
Parque de Villa Rosa Paco Caño,http://www.wikidata.org/entity/Q110749242,Parque-Hortaleza,sí,,,"Bus: 7 , 9 , 29 , 72 , 87 , 107 , 129 , 172 , 172SF  Servicio Bicimad, para consultar la estación más cercana, acceda al mapa de geolocalización de las estaciones.",,,,,,,"Bus: 7 , 9 , 29 , 72 , 87 , 107 , 129 , 172 , 172SF","7
9
29
72
87
107
129
172",62863,Instalación parcialmente accesible para personas con movilidad reducida,ESTACION DE HORTALEZA,calle ESTACION DE HORTALEZA Madrid,,18,Madrid,http://www.wikidata.org/entity/Q1753102,MADRID,28033,Pinar del Rey,http://www.wikidata.org/entity/Q10349788,Hortaleza,http://www.wikidata.org/entity/Q1928529,40.48024318499327,-3.650809942180937,,,/contenido/entidadesYorganismos/ParquesJardines,ParquesJardines
Parque Juan de la Cosa,,Parque-Juan-de-la-Cosa,no,,,"Metro: líneas 8 y 9 (Colombia)  Bus: 14,7,16,29,51",,,,Metro: líneas 8 y 9 (Colombia),líneas 8 y 9,"8
9","Bus: 14,7,16,29,51","14
7
16
29
51",3707,Instalación parcialmente accesible para personas con movilidad reducida,VICTOR ANDRES BELAUNDE,"Calle de Víctor Andrés Belaúnde, Madrid",http://www.wikidata.org/entity/Q56550561,1,Madrid,http://www.wikidata.org/entity/Q1753102,MADRID,28016,Hispanoamérica,http://www.wikidata.org/entity/Q3814573,Chamartín,http://www.wikidata.org/entity/Q1766348,40.45424210617104,-3.679171627391412,,,/contenido/entidadesYorganismos/ParquesJardines,ParquesJardines
Parque La Viña,,Parque-La-Vina,sí,,,Bus: 102 Renfe: Asamblea de Madrid- Entrevías,"RENFE: Asamblea de Madrid  Entrevías C2, C7, C8","C-2
C-7
C-8",: Asamblea de Madrid - Entrevías,,,,Bus: 102,102,43738,Instalación parcialmente accesible para personas con movilidad reducida,TIMOTEO PEREZ RUBIO,calle TIMOTEO PEREZ RUBIO Madrid,,9,Madrid,http://www.wikidata.org/entity/Q1753102,MADRID,28053,Entrevías,http://www.wikidata.org/entity/Q71756,Puente de Vallecas,http://www.wikidata.org/entity/Q2003054,40.38556774381467,-3.67430914572838,,,/contenido/entidadesYorganismos/ParquesJardines,ParquesJardines
Parque Ladera de los Almendros,,Parque-Ladera-de-los-Almendros,no,,,"Bus: 8 , 71  Servicio Bicimad, para consultar la estación más cercana, acceda al mapa de geolocalización de las estaciones.",,,,,,,"Bus: 8 , 71","8
71",,Instalación parcialmente accesible para personas con movilidad reducida,LADERA DE LOS ALMENDROS,calle LADERA DE LOS ALMENDROS Madrid,,46,Madrid,http://www.wikidata.org/entity/Q1753102,MADRID,28032,Valdebernardo,http://www.wikidata.org/entity/Q43025212,Vicálvaro,http://www.wikidata.org/entity/Q589403,40.39616431537003,-3.6261065047300303,,,/contenido/entidadesYorganismos/ParquesJardines,ParquesJardines
Parque Martala,,Parque-Martala,sí,,,"Bus: 32, 71  Servicio Bicimad, para consultar la estación más cercana, acceda al mapa de geolocalización de las estaciones.",,,,,,,"Bus: 32, 71","32
71",49158,Instalación parcialmente accesible para personas con movilidad reducida,MORATALAZ,Avenida de Moratalaz,http://www.wikidata.org/entity/Q104778384,183,Madrid,http://www.wikidata.org/entity/Q1753102,MADRID,28030,Marroquina,http://www.wikidata.org/entity/Q11935636,Moratalaz,http://www.wikidata.org/entity/Q2076109,40.40882236801765,-3.643898652734279,,,/contenido/entidadesYorganismos/ParquesJardines,ParquesJardines
Parque Martin Luther King,,Parque-Martin-Luther-King,sí,,,"Metro: Conde de Casal (línea 6). Bus: 8 , 10 , 24 , 54 , 56 , 57 , 113 , 136, 141 , 148 , 310.  Servicio Bicimad, para consultar la estación más cercana, acceda al mapa de geolocalización de las estaciones.",,,,Metro: Conde de Casal (línea 6),Conde de Casal,6,"Bus: 8 , 10 , 24 , 54 , 56 , 57 , 113 , 136, 141 , 148 , 310","8
10
24
54
56
57
113
136
141
148
310",33700,Instalación parcialmente accesible para personas con movilidad reducida,CERRO NEGRO,calle CERRO NEGRO Madrid,,1,Madrid,http://www.wikidata.org/entity/Q1753102,MADRID,28007,Adelfas,http://www.wikidata.org/entity/Q3774001,Retiro,http://www.wikidata.org/entity/Q2002296,40.398195733324194,-3.6701340560704026,,,/contenido/entidadesYorganismos/ParquesJardines,ParquesJardines
Parque Mirador de Tierno Galván,,Parque-Mirador-de-Tierno-Galvan,no especifica,,,"Bus: 148  Servicio Bicimad, para consultar la estación más cercana, acceda al mapa de geolocalización de las estaciones.",,,,,,,Bus: 148,148,22200,Instalación parcialmente accesible para personas con movilidad reducida,NEBULOSAS,calle NEBULOSAS Madrid,,7,Madrid,http://www.wikidata.org/entity/Q1753102,MADRID,28045,Las Delicias,http://www.wikidata.org/entity/Q3773736,Arganzuela,http://www.wikidata.org/entity/Q2000929,40.394735491209424,-3.6856299107811368,,,/contenido/entidadesYorganismos/ParquesJardines,ParquesJardines
Parque Mirador de las Cárcavas,,Parque-Mirador-de-las-Carcavas,sí,,,"Bus: 87  Servicio Bicimad, para consultar la estación más cercana, acceda al mapa de geolocalización de las estaciones.",,,,,,,Bus: 87,87,38134,Instalación parcialmente accesible para personas con movilidad reducida,RAFAELA APARICIO,calle RAFAELA APARICIO Madrid,,2,Madrid,http://www.wikidata.org/entity/Q1753102,MADRID,28055,Valdefuentes,http://www.wikidata.org/entity/Q10388714,Hortaleza,http://www.wikidata.org/entity/Q1928529,40.47917989766592,-3.6330084507532687,,,/contenido/entidadesYorganismos/ParquesJardines,ParquesJardines
Parque Norte - Carmen Tagle,,Parque-Norte---Carmen-Tagle,sí,,,"Bus: 124, 137  Servicio Bicimad, para consultar la estación más cercana, acceda al mapa de geolocalización de las estaciones.",,,,,,,"Bus: 124, 137","124
137",195230,Instalación parcialmente accesible para personas con movilidad reducida,ARZOBISPO MORCILLO,calle ARZOBISPO MORCILLO Madrid,,7,Madrid,http://www.wikidata.org/entity/Q1753102,MADRID,28029,La Paz,http://www.wikidata.org/entity/Q5869740,Fuencarral-El Pardo,http://www.wikidata.org/entity/Q656196,40.48106787416528,-3.6933504628706095,,,/contenido/entidadesYorganismos/ParquesJardines,ParquesJardines
Parque Nudo Norte de Begoña,,Parque-Nudo-Norte-de-Begona,sí,,,"Metro: Begoña (línea 10) Bus: 124, 137  Servicio Bicimad, para consultar la estación más cercana, acceda al mapa de geolocalización de las estaciones.",,,,Metro: Begoña (línea 10),Begoña,10,"Bus: 124, 137","124
137",21071,Instalación parcialmente accesible para personas con movilidad reducida,LLANO CASTELLANO,calle LLANO CASTELLANO Madrid,,1,Madrid,http://www.wikidata.org/entity/Q1753102,MADRID,28034,Valverde,http://www.wikidata.org/entity/Q31132,Fuencarral-El Pardo,http://www.wikidata.org/entity/Q656196,40.483895554775785,-3.6844715393162772,,,/contenido/entidadesYorganismos/ParquesJardines,ParquesJardines
Parque Olof Palme,,Parque-Olof-Palme,no,,,"Metro: Plaza Elíptica (línea 6 y 11) Bús: 47 , 60 , 81 , 247  Servicio Bicimad, para consultar la estación más cercana, acceda al mapa de geolocalización de las estaciones.",,,,Metro: Plaza Elíptica (línea 6 y 11),Plaza Elíptica,"6
11
47
60
81
247",,,48867,Instalación parcialmente accesible para personas con movilidad reducida,CERECINOS,calle CERECINOS Madrid,,1,Madrid,http://www.wikidata.org/entity/Q1753102,MADRID,28026,Zofío,http://www.wikidata.org/entity/Q71751,Usera,http://www.wikidata.org/entity/Q953368,40.38439900273861,-3.7129519968429445,,,/contenido/entidadesYorganismos/ParquesJardines,ParquesJardines
Parque Orlando Zapata Tamayo,,Parque-Orlando-Zapata-Tamayo,sí,,,"Metro: líneas 8 y 9 (Colombia)  Bus: 52  Servicio Bicimad, para consultar la estación más cercana, acceda al mapa de geolocalización de las estaciones.",,,,Metro: líneas 8 y 9 (Colombia),líneas 8 y 9,"8
9",Bus: 52,52,12900,Instalación parcialmente accesible para personas con movilidad reducida,URUGUAY,calle URUGUAY Madrid,,6,Madrid,http://www.wikidata.org/entity/Q1753102,MADRID,28016,Hispanoamérica,http://www.wikidata.org/entity/Q3814573,Chamartín,http://www.wikidata.org/entity/Q1766348,40.455011305200735,-3.6743070613284736,,,/contenido/entidadesYorganismos/ParquesJardines,ParquesJardines
Parque Paseo Muñoz Grandes,,Parque-Paseo-Munoz-Grandes,no,,,"Bus: 34 , 35  Servicio Bicimad, para consultar la estación más cercana, acceda al mapa de geolocalización de las estaciones.",,,,,,,"Bus: 34 , 35","34
35",2750,Instalación parcialmente accesible para personas con movilidad reducida,MARCELINO CAMACHO,calle MARCELINO CAMACHO Madrid,,6,Madrid,http://www.wikidata.org/entity/Q1753102,MADRID,28025,Vista Alegre,http://www.wikidata.org/entity/Q3813741,Carabanchel,http://www.wikidata.org/entity/Q1001991,40.385086008433305,-3.7398326701482016,,,/contenido/entidadesYorganismos/ParquesJardines,ParquesJardines
Parque Payaso Fofó,,Parque-Payaso-Fofo,sí,,,"Bus: 310, 410, 144, 57, 136 RENFE: Asamblea de Madrid - Entrevías.  Servicio Bicimad, para consultar la estación más cercana, acceda al mapa de geolocalización de las estaciones.","RENFE: Asamblea de Madrid  Entrevías C2, C7, C8","C-2
C-7
C-8",: Asamblea de Madrid - Entrevías,,,,"Bus: 310, 410, 144, 57, 136","310
410
144
57
136",76844,Instalación parcialmente accesible para personas con movilidad reducida,PAYASO FOFO,calle PAYASO FOFO Madrid,,11,Madrid,http://www.wikidata.org/entity/Q1753102,MADRID,28018,Palomeras Bajas,http://www.wikidata.org/entity/Q10343902,Puente de Vallecas,http://www.wikidata.org/entity/Q2003054,40.38901086962944,-3.6599692832803825,,,/contenido/entidadesYorganismos/ParquesJardines,ParquesJardines
Parque Pinar del Rey,,Parque-Pinar-del-Rey,no,,,"Bus: 9 , 72 , 87 , 125 , 229  Servicio Bicimad, para consultar la estación más cercana, acceda al mapa de geolocalización de las estaciones.",,,,,,,"Bus: 9 , 72 , 87 , 125 , 229","9
72
87
125
229",30593,Instalación parcialmente accesible para personas con movilidad reducida,CANILLAS,"Carretera de Canillas, Madrid",http://www.wikidata.org/entity/Q28973490,1,Madrid,http://www.wikidata.org/entity/Q1753102,MADRID,28043,Canillas,http://www.wikidata.org/entity/Q9694341,Hortaleza,http://www.wikidata.org/entity/Q1928529,40.463441129364256,-3.6556488853143465,,,/contenido/entidadesYorganismos/ParquesJardines,ParquesJardines
Parque Plaza Chozas de Canales,,Parque-Plaza-Chozas-de-Canales,no,,,"Metro: Villaverde Bajo Cruce (línea 3) Bus: 22, 59, 79, 85, 123, 130  Servicio Bicimad, para consultar la estación más cercana, acceda al mapa de geolocalización de las estaciones.",,,,Metro: Villaverde Bajo Cruce (línea 3),Villaverde Bajo Cruce,3,"Bus: 22, 59, 79, 85, 123, 130","22
59
79
85
123
130",9423,Instalación parcialmente accesible para personas con movilidad reducida,VILLAVERDE A VALLECAS,calle VILLAVERDE A VALLECAS Madrid,,10,Madrid,http://www.wikidata.org/entity/Q1753102,MADRID,28021,Los Rosales,http://www.wikidata.org/entity/Q10319807,Villaverde,http://www.wikidata.org/entity/Q919536,40.35277786522202,-3.6905392176697744,,,/contenido/entidadesYorganismos/ParquesJardines,ParquesJardines
Parque Plaza Colonia Oroquieta,,Parque-Plaza-Colonia-Oroquieta,sí,,,"Metro: Villaverde Cruce (línea 3) Bus: 22, 59, 79, 85, 123, 130  Servicio Bicimad, para consultar la estación más cercana, acceda al mapa de geolocalización de las estaciones.",,,,Metro: Villaverde Cruce (línea 3),Villaverde Cruce,3,"Bus: 22, 59, 79, 85, 123, 130","22
59
79
85
123
130",,Instalación parcialmente accesible para personas con movilidad reducida,VILLAVERDE A VALLECAS,calle VILLAVERDE A VALLECAS Madrid,,1,Madrid,http://www.wikidata.org/entity/Q1753102,MADRID,28041,Los Rosales,http://www.wikidata.org/entity/Q10319807,Villaverde,http://www.wikidata.org/entity/Q919536,40.35239211569256,-3.691771736219469,,,/contenido/entidadesYorganismos/ParquesJardines,ParquesJardines
Parque Ramírez de Prado,,Parque-Ramirez-de-Prado,sí,,,"Metro: Delicias (línea 3)  Bus: 8, 102, 152, N11, N13  Servicio Bicimad, para consultar la estación más cercana, acceda al mapa de geolocalización de las estaciones.",,,,Metro: Delicias (línea 3),Delicias,3,"Bus: 8, 102, 152, N11, N13","8
102
152
11
13",20900,Instalación parcialmente accesible para personas con movilidad reducida,RAMIREZ DE PRADO,calle de Ramírez de Prado,http://www.wikidata.org/entity/Q118644910,2,Madrid,http://www.wikidata.org/entity/Q1753102,MADRID,28045,Las Delicias,http://www.wikidata.org/entity/Q3773736,Arganzuela,http://www.wikidata.org/entity/Q2000929,40.39932569185547,-3.6894842200951024,,,/contenido/entidadesYorganismos/ParquesJardines,ParquesJardines
Parque San José de Calasanz,,Parque-San-Jose-de-Calasanz,no,,,"Bus: 2, 16, 61, 202  Servicio Bicimad, para consultar la estación más cercana, acceda al mapa de geolocalización de las estaciones.",,,,,,,"Bus: 2, 16, 61, 202","2
16
61
202",1831,Instalación parcialmente accesible para personas con movilidad reducida,JOAQUIN MARIA LOPEZ,calle de Joaquín María López,http://www.wikidata.org/entity/Q27243136,39,Madrid,http://www.wikidata.org/entity/Q1753102,MADRID,28015,Gaztambide,http://www.wikidata.org/entity/Q10288587,Chamberí,http://www.wikidata.org/entity/Q1763370,40.43761436823094,-3.7145867743039878,,,/contenido/entidadesYorganismos/ParquesJardines,ParquesJardines
Parque San Juan Bautista,,Parque-San-Juan-Bautista,sí,,,"Bus: 53  Servicio Bicimad, para consultar la estación más cercana, acceda al mapa de geolocalización de las estaciones.",,,,,,,Bus: 53,53,10302,Instalación parcialmente accesible para personas con movilidad reducida,AGASTIA,calle AGASTIA Madrid,,87,Madrid,http://www.wikidata.org/entity/Q1753102,MADRID,28043,San Juan Bautista,http://www.wikidata.org/entity/Q165609,Ciudad Lineal,http://www.wikidata.org/entity/Q1763694,40.451304609076615,-3.6558964974118364,,,/contenido/entidadesYorganismos/ParquesJardines,ParquesJardines
Parque Santa Eugenia,,Parque-Santa-Eugenia,sí,,,"Bus: 58 , 63 , N9 , 145  Servicio Bicimad, para consultar la estación más cercana, acceda al mapa de geolocalización de las estaciones.",,,,,,,"Bus: 58 , 63 , N9 , 145","58
63
9
145",20003,Instalación parcialmente accesible para personas con movilidad reducida,Cerro Almodóvar,calle Cerro Almodóvar Madrid,,1,Madrid,http://www.wikidata.org/entity/Q1753102,MADRID,28031,Santa Eugenia,http://www.wikidata.org/entity/Q390463,Villa de Vallecas,http://www.wikidata.org/entity/Q1947988,40.38131130575197,-3.608459149580722,,,/contenido/entidadesYorganismos/ParquesJardines,ParquesJardines
Parque Urpisa,,Parque-Urpisa,no especifica,,,"Bus: 54, 58, 103, 142 y N9 Metro: Villa de Vallecas (línea 1)  Servicio Bicimad, para consultar la estación más cercana, acceda al mapa de geolocalización de las estaciones.",,,,Metro: Villa de Vallecas (línea 1),Villa de Vallecas,1,"Bus: 54, 58, 103, 142 y N9","54
58
103
142
9",4487,Instalación parcialmente accesible para personas con movilidad reducida,VASARES,calle VASARES Madrid,,2,Madrid,http://www.wikidata.org/entity/Q1753102,MADRID,28031,Casco Histórico de Vallecas,http://www.wikidata.org/entity/Q16544370,Villa de Vallecas,http://www.wikidata.org/entity/Q1947988,40.38289158525453,-3.619641837988416,,,/contenido/entidadesYorganismos/ParquesJardines,ParquesJardines
Parque Valdebernardo Este,,Parque-Valdebernardo-Este,sí,,,"Metro: Valdebernardo (línea 9) Bus: 71  Servicio Bicimad, para consultar la estación más cercana, acceda al mapa de geolocalización de las estaciones.",,,,Metro: Valdebernardo (línea 9),Valdebernardo,9,Bus: 71,71,82747,Instalación parcialmente accesible para personas con movilidad reducida,CORDEL DE PAVONES,calle CORDEL DE PAVONES Madrid,,2,Madrid,http://www.wikidata.org/entity/Q1753102,MADRID,28032,Casco Histórico de Vicálvaro,http://www.wikidata.org/entity/Q16544374,Vicálvaro,http://www.wikidata.org/entity/Q589403,40.4027578376722,-3.617738099849234,,,/contenido/entidadesYorganismos/ParquesJardines,ParquesJardines
Parque Valle de Enmedio,,Parque-Valle-de-Enmedio,sí,,,"Bus: 64 Metro: Lacoma (línea 7)  Servicio Bicimad, para consultar la estación más cercana, acceda al mapa de geolocalización de las estaciones.",,,,Metro: Lacoma (línea 7),Lacoma,7,Bus: 64,64,61722,Instalación parcialmente accesible para personas con movilidad reducida,MIRADOR DE LA REINA,calle MIRADOR DE LA REINA Madrid,,22,Madrid,http://www.wikidata.org/entity/Q1753102,MADRID,28035,Mirasierra,http://www.wikidata.org/entity/Q31134,Fuencarral-El Pardo,http://www.wikidata.org/entity/Q656196,40.48922371593969,-3.7237594350747143,,,/contenido/entidadesYorganismos/ParquesJardines,ParquesJardines
Parque Vallecas Villa,,Parque-Vallecas-Villa,sí,,,"Bus: 54, 103, 142 y N9 Metro: Congosto (línea 1)  Servicio Bicimad, para consultar la estación más cercana, acceda al mapa de geolocalización de las estaciones.",,,,Metro: Congosto (línea 1),Congosto,1,"Bus: 54, 103, 142 y N9","54
103
142
9",31987,Instalación parcialmente accesible para personas con movilidad reducida,BABILAFUENTE,calle BABILAFUENTE Madrid,,2,Madrid,http://www.wikidata.org/entity/Q1753102,MADRID,28031,Casco Histórico de Vallecas,http://www.wikidata.org/entity/Q16544370,Villa de Vallecas,http://www.wikidata.org/entity/Q1947988,40.37217516332789,-3.6238430832643598,,,/contenido/entidadesYorganismos/ParquesJardines,ParquesJardines
Parque Vandel,,Parque-Vandel,no,,,"Bus: 32  Servicio Bicimad, para consultar la estación más cercana, acceda al mapa de geolocalización de las estaciones.",,,,,,,Bus: 32,32,58930,Instalación parcialmente accesible para personas con movilidad reducida,MOLINA DE SEGURA,calle MOLINA DE SEGURA Madrid,,10,Madrid,http://www.wikidata.org/entity/Q1753102,MADRID,28030,Marroquina,http://www.wikidata.org/entity/Q11935636,Moratalaz,http://www.wikidata.org/entity/Q2076109,40.4049148503112,-3.636955454805149,,,/contenido/entidadesYorganismos/ParquesJardines,ParquesJardines
Parque Virgen de la Esperanza,,Parque-Virgen-de-la-Esperanza,sí,,,"Bus: 22 , 76 , 79  Servicio Bicimad, para consultar la estación más cercana, acceda al mapa de geolocalización de las estaciones.",,,,,,,"Bus: 22 , 76 , 79","22
76
79",33300,Instalación parcialmente accesible para personas con movilidad reducida,ANOETA,calle ANOETA Madrid,,45,Madrid,http://www.wikidata.org/entity/Q1753102,MADRID,28041,Los Ángeles,http://www.wikidata.org/entity/Q390462,Villaverde,http://www.wikidata.org/entity/Q919536,40.351030215596516,-3.7010015933831006,,,/contenido/entidadesYorganismos/ParquesJardines,ParquesJardines
Parque de Ana Tutor,,Parque-de-Ana-Tutor,sí,,,"Bus: 49, 64  Servicio Bicimad, para consultar la estación más cercana, acceda al mapa de geolocalización de las estaciones.",,,,,,,"Bus: 49, 64","49
64",36913,Instalación parcialmente accesible para personas con movilidad reducida,VALLE DE PINARES LLANOS,calle VALLE DE PINARES LLANOS Madrid,,1,Madrid,http://www.wikidata.org/entity/Q1753102,MADRID,28035,Peñagrande,http://www.wikidata.org/entity/Q3319582,Fuencarral-El Pardo,http://www.wikidata.org/entity/Q656196,40.48559668319756,-3.7174080145343464,,,/contenido/entidadesYorganismos/ParquesJardines,ParquesJardines
Parque de Breogán,,Parque-de-Breogan,sí,,,"Metro: Parque Avenidas (línea 7) Bus: 21, 43, 48 , 53 y 74  Servicio Bicimad, para consultar la estación más cercana, acceda al mapa de geolocalización de las estaciones.",,,,Metro: Parque Avenidas (línea 7),Parque Avenidas,7,"Bus: 21, 43, 48 , 53 y 74","21
43
48
53
74",22300,Instalación parcialmente accesible para personas con movilidad reducida,BRASILIA,calle BRASILIA Madrid,,2,Madrid,http://www.wikidata.org/entity/Q1753102,MADRID,28028,La Guindalera,http://www.wikidata.org/entity/Q3814559,Salamanca,http://www.wikidata.org/entity/Q1773521,40.437140971249754,-3.6608995093418306,,,/contenido/entidadesYorganismos/ParquesJardines,ParquesJardines
Parque de Canillejas,,Parque-de-Canillejas,sí,,,"Bus: 28, 48   Servicio Bicimad, para consultar la estación más cercana, acceda al mapa de geolocalización de las estaciones.",,,,,,,"Bus: 28, 48","28
48",11237,Instalación parcialmente accesible para personas con movilidad reducida,CIRCE,calle CIRCE Madrid,,57,Madrid,http://www.wikidata.org/entity/Q1753102,MADRID,28022,Canillejas,http://www.wikidata.org/entity/Q663013,San Blas-Canillejas,http://www.wikidata.org/entity/Q2001937,40.44191186628217,-3.610832880429799,,,/contenido/entidadesYorganismos/ParquesJardines,ParquesJardines
Parque de Enrique Herreros,,Parque-de-Enrique-Herreros,sí,,,"Metro: Canal (líneas 2, 7) Bus: 3 , 12 , 37 , 149  Servicio Bicimad, para consultar la estación más cercana, acceda al mapa de geolocalización de las estaciones.",,,,"Metro: Canal (líneas 2, 7)",Canal,"2
7","Bus: 3 , 12 , 37 , 149","3
12
37
149",6667,Instalación parcialmente accesible para personas con movilidad reducida,BRAVO MURILLO,calle de Bravo Murillo,http://www.wikidata.org/entity/Q5740815,49,Madrid,http://www.wikidata.org/entity/Q1753102,MADRID,28003,Vallehermoso,http://www.wikidata.org/entity/Q6122685,Chamberí,http://www.wikidata.org/entity/Q1763370,40.43934359051524,-3.7043941647283263,,,/contenido/entidadesYorganismos/ParquesJardines,ParquesJardines
Parque de Fuentechica,,Parque-de-Fuentechica,no especifica,,,"Bus: 66, 137   Servicio Bicimad, para consultar la estación más cercana, acceda al mapa de geolocalización de las estaciones.",,,,,,,"Bus: 66, 137","66
137",20350,Instalación parcialmente accesible para personas con movilidad reducida,ANASTASIA LOPEZ,calle ANASTASIA LOPEZ Madrid,,21,Madrid,http://www.wikidata.org/entity/Q1753102,MADRID,28034,Valverde,http://www.wikidata.org/entity/Q31132,Fuencarral-El Pardo,http://www.wikidata.org/entity/Q656196,40.49571829898632,-3.6915305267345935,,,/contenido/entidadesYorganismos/ParquesJardines,ParquesJardines
Parque de Fuentelarreina,,Parque-de-Fuentelarreina,no,,,"Bus: 67, 82  Servicio Bicimad, para consultar la estación más cercana, acceda al mapa de geolocalización de las estaciones.",,,,,,,"Bus: 67, 82","67
82",43963,Instalación parcialmente accesible para personas con movilidad reducida,ROSALIA DE CASTRO,calle ROSALIA DE CASTRO Madrid,,80,Madrid,http://www.wikidata.org/entity/Q1753102,MADRID,28035,Peñagrande,http://www.wikidata.org/entity/Q3319582,Fuencarral-El Pardo,http://www.wikidata.org/entity/Q656196,40.48346692636297,-3.7337736098964642,,,/contenido/entidadesYorganismos/ParquesJardines,ParquesJardines
Parque de Gabriela Mistral,,Parque-de-Gabriela-Mistral,sí,,,"Bus: 67  Servicio Bicimad, para consultar la estación más cercana, acceda al mapa de geolocalización de las estaciones.",,,,,,,Bus: 67,67,125503,Instalación parcialmente accesible para personas con movilidad reducida,ROSALIA DE CASTRO,calle ROSALIA DE CASTRO Madrid,,69,Madrid,http://www.wikidata.org/entity/Q1753102,MADRID,28035,Peñagrande,http://www.wikidata.org/entity/Q3319582,Fuencarral-El Pardo,http://www.wikidata.org/entity/Q656196,40.484467522541834,-3.7336783173806616,,,/contenido/entidadesYorganismos/ParquesJardines,ParquesJardines
Parque de Isabel Clara Eugenia,,Parque-de-Isabel-Clara-Eugenia,no especifica,,,"Bus: 9, 72, 125, 229",,,,,,,"Bus: 9, 72, 125, 229","9
72
125
229",23301,Instalación parcialmente accesible para personas con movilidad reducida,MAR CASPIO,calle MAR CASPIO Madrid,,4,Madrid,http://www.wikidata.org/entity/Q1753102,MADRID,28033,Pinar del Rey,http://www.wikidata.org/entity/Q10349788,Hortaleza,http://www.wikidata.org/entity/Q1928529,40.473611797871555,-3.646133317289789,,,/contenido/entidadesYorganismos/ParquesJardines,ParquesJardines
Parque de Juan XXIII,,Parque-de-Juan-XXIII,no,,,"Metro: Guzmán el Bueno (línea 6 y 7)  Servicio Bicimad, para consultar la estación más cercana, acceda al mapa de geolocalización de las estaciones.",,,,Metro: Guzmán el Bueno (línea 6 y 7),Guzmán el Bueno,"6
7",,,14381,Instalación parcialmente accesible para personas con movilidad reducida,JUAN XXIII,"Paseo de Juan XXIII, Madrid",http://www.wikidata.org/entity/Q28367318,21,Madrid,http://www.wikidata.org/entity/Q1753102,MADRID,28040,Ciudad Universitaria,http://www.wikidata.org/entity/Q3319235,Moncloa-Aravaca,http://www.wikidata.org/entity/Q2017682,40.450619984285915,-3.7136749543495617,,,/contenido/entidadesYorganismos/ParquesJardines,ParquesJardines
Parque de La Rinconada,,Parque-de-La-Rinconada,no,,,"Bus: 160  Servicio Bicimad, para consultar la estación más cercana, acceda al mapa de geolocalización de las estaciones.",,,,,,,Bus: 160,160,42739,Instalación parcialmente accesible para personas con movilidad reducida,HIENDELAENCINA,calle HIENDELAENCINA Madrid,,9,Madrid,http://www.wikidata.org/entity/Q1753102,MADRID,28023,Aravaca,http://www.wikidata.org/entity/Q3314682,Moncloa-Aravaca,http://www.wikidata.org/entity/Q2017682,40.45750725687833,-3.7664554910416252,,,/contenido/entidadesYorganismos/ParquesJardines,ParquesJardines
Kungsparken,http://www.wikidata.org/entity/Q59032,Parque-de-Malmoe,no,,,"Bus: 106  Servicio Bicimad, para consultar la estación más cercana, acceda al mapa de geolocalización de las estaciones.",,,,,,,Bus: 106,106,42654,Instalación parcialmente accesible para personas con movilidad reducida,MALMOE,calle MALMOE Madrid,,2,Madrid,http://www.wikidata.org/entity/Q1753102,MADRID,28032,Pueblo Nuevo,http://www.wikidata.org/entity/Q71753,Ciudad Lineal,http://www.wikidata.org/entity/Q1763694,40.41540866888321,-3.625727333816089,,,/contenido/entidadesYorganismos/ParquesJardines,ParquesJardines
Parque de Manoteras,,Parque-de-Manoteras,no especifica,,,"Metro: Manoteras (línea 4) Bus: 7, 29  Servicio Bicimad, para consultar la estación más cercana, acceda al mapa de geolocalización de las estaciones.",,,,Metro: Manoteras (línea 4),Manoteras,4,"Bus: 7, 29","7
29",18484,Instalación parcialmente accesible para personas con movilidad reducida,BACARES,calle BACARES Madrid,,22,Madrid,http://www.wikidata.org/entity/Q1753102,MADRID,28033,Apóstol Santiago,http://www.wikidata.org/entity/Q11906303,Hortaleza,http://www.wikidata.org/entity/Q1928529,40.476654320025524,-3.662490150184719,,,/contenido/entidadesYorganismos/ParquesJardines,ParquesJardines
Parque de Pan Bendito,,Parque-de-Pan-Bendito,no,,,"Bus: 47 , 108 , 118 , 121 , 131 Metro: Pan Bendito (línea 11)  Servicio Bicimad, para consultar la estación más cercana, acceda al mapa de geolocalización de las estaciones.",,,,Metro: Pan Bendito (línea 11),Pan Bendito,11,"Bus: 47 , 108 , 118 , 121 , 131","47
108
118
121
131",15711,Instalación parcialmente accesible para personas con movilidad reducida,POBLADOS,avenida de los Poblados,http://www.wikidata.org/entity/Q26795575,35,Madrid,http://www.wikidata.org/entity/Q1753102,MADRID,28044,Las Águilas,http://www.wikidata.org/entity/Q5971372,Carabanchel,http://www.wikidata.org/entity/Q1001991,40.38951896001857,-3.76740436374511,,,/contenido/entidadesYorganismos/ParquesJardines,ParquesJardines
Parque de Peñagrande,,Parque-de-Penagrande,no,,,"Bus: 82  Servicio Bicimad, para consultar la estación más cercana, acceda al mapa de geolocalización de las estaciones.",,,,,,,Bus: 82,82,30687,Instalación parcialmente accesible para personas con movilidad reducida,LEOPOLDO ALAS CLARIN,calle LEOPOLDO ALAS CLARIN Madrid,,53,Madrid,http://www.wikidata.org/entity/Q1753102,MADRID,28035,Peñagrande,http://www.wikidata.org/entity/Q3319582,Fuencarral-El Pardo,http://www.wikidata.org/entity/Q656196,40.48185149371301,-3.732800354586844,,,/contenido/entidadesYorganismos/ParquesJardines,ParquesJardines
Parque de Rafael Finat,,Parque-de-Rafael-Finat,no,,,"Bus: 17, 117, 139  Servicio Bicimad, para consultar la estación más cercana, acceda al mapa de geolocalización de las estaciones.",,,,,,,"Bus: 17, 117, 139","17
117
139",10011,Instalación parcialmente accesible para personas con movilidad reducida,VIDAUBA,calle VIDAUBA Madrid,,4,Madrid,http://www.wikidata.org/entity/Q1753102,MADRID,28044,Las Águilas,http://www.wikidata.org/entity/Q5971372,Latina,http://www.wikidata.org/entity/Q794954,40.383406554321375,-3.7639655933540093,,,/contenido/entidadesYorganismos/ParquesJardines,ParquesJardines
Parque de Salvador Allende,,Parque-de-Salvador-Allende,no,,,"Bus: 35, 118,155, SE1, SE832 Metro: La Peseta (línea 11)  Servicio Bicimad, para consultar la estación más cercana, acceda al mapa de geolocalización de las estaciones.",,,,Metro: La Peseta (línea 11),La Peseta,11,"Bus: 35, 118,155, SE1, SE832","35
118
155
1
832",37283,Instalación parcialmente accesible para personas con movilidad reducida,SALVADOR ALLENDE,calle SALVADOR ALLENDE Madrid,,3,Madrid,http://www.wikidata.org/entity/Q1753102,MADRID,28054,Buenavista,http://www.wikidata.org/entity/Q953929,Carabanchel,http://www.wikidata.org/entity/Q1001991,40.364341448699825,-3.757402071835875,,,/contenido/entidadesYorganismos/ParquesJardines,ParquesJardines
Parque de la Alcazaba,,Parque-de-la-Alcazaba,sí,,,"Bus: 42  Servicio Bicimad, para consultar la estación más cercana, acceda al mapa de geolocalización de las estaciones.",,,,,,,Bus: 42,42,119657,Instalación parcialmente accesible para personas con movilidad reducida,RIBADAVIA,calle RIBADAVIA Madrid,,45,Madrid,http://www.wikidata.org/entity/Q1753102,MADRID,28029,El Pilar,http://www.wikidata.org/entity/Q3773964,Fuencarral-El Pardo,http://www.wikidata.org/entity/Q656196,40.47266915640937,-3.707125226601671,,,/contenido/entidadesYorganismos/ParquesJardines,ParquesJardines
Parque de la Almudena,,Parque-de-la-Almudena,no,,,"Bus: 70 , 106  Servicio Bicimad, para consultar la estación más cercana, acceda al mapa de geolocalización de las estaciones.",,,,,,,"Bus: 70 , 106","70
106",33443,Instalación parcialmente accesible para personas con movilidad reducida,NICOLAS SALMERON,calle NICOLAS SALMERON Madrid,,4,Madrid,http://www.wikidata.org/entity/Q1753102,MADRID,28017,Pueblo Nuevo,http://www.wikidata.org/entity/Q71753,Ciudad Lineal,http://www.wikidata.org/entity/Q1763694,40.42060649869604,-3.6324237307227616,,,/contenido/entidadesYorganismos/ParquesJardines,ParquesJardines
Parque de la Casa de Campo,,Parque-de-la-Casa-de-Campo,no especifica,,,"Metro: Batán (línea 10)  Servicio Bicimad, para consultar la estación más cercana, acceda al mapa de geolocalización de las estaciones.",,,,Metro: Batán (línea 10),Batán,10,,,15355200,Instalación parcialmente accesible para personas con movilidad reducida,PUERTA DEL ANGEL,calle PUERTA DEL ANGEL Madrid,,1,Madrid,http://www.wikidata.org/entity/Q1753102,MADRID,28011,Casa de Campo,http://www.wikidata.org/entity/Q16302441,Moncloa-Aravaca,http://www.wikidata.org/entity/Q2017682,40.41472407139105,-3.7301857404819767,,,/contenido/entidadesYorganismos/ParquesJardines/ParquesHistoricos,ParquesJardines
Parque de la Maceta,,Parque-de-la-Maceta,sí,,,"Metro: Vicálvaro (línea 9)  Bus: E3 , 4 , 100 , 106 , 130   Servicio Bicimad, para consultar la estación más cercana, acceda al mapa de geolocalización de las estaciones.",,,,Metro: Vicálvaro (línea 9),Vicálvaro,9,"Bus: E3 , 4 , 100 , 106 , 130","3
4
100
106
130",12922,Instalación parcialmente accesible para personas con movilidad reducida,DAROCA,calle DAROCA Madrid,,301,Madrid,http://www.wikidata.org/entity/Q1753102,MADRID,28032,Ambroz,http://www.wikidata.org/entity/Q11905294,Vicálvaro,http://www.wikidata.org/entity/Q589403,40.40838172678723,-3.6156327652234856,,,/contenido/entidadesYorganismos/ParquesJardines,ParquesJardines
Parque de la Montaña Templo de Debod,,Parque-de-la-Montana-Templo-de-Debod,no especifica,,,,,,,,,,,,,Instalación parcialmente accesible para personas con movilidad reducida,PROFESOR MARTIN ALMAGRO BASCH,calle PROFESOR MARTIN ALMAGRO BASCH Madrid,,,Madrid,http://www.wikidata.org/entity/Q1753102,MADRID,28008,Casa de Campo,http://www.wikidata.org/entity/Q16302441,Moncloa-Aravaca,http://www.wikidata.org/entity/Q2017682,40.423065607234435,-3.7168927333258734,,,/contenido/entidadesYorganismos/ParquesJardines,ParquesJardines
Parque de la Supermanzana,,Parque-de-la-Supermanzana,sí,,,"Metro: Herrera Oria (línea 9) Bus: 67, 83  Servicio Bicimad, para consultar la estación más cercana, acceda al mapa de geolocalización de las estaciones.",,,,Metro: Herrera Oria (línea 9),Herrera Oria,9,"Bus: 67, 83","67
83",23747,Instalación parcialmente accesible para personas con movilidad reducida,SANGENJO,calle SANGENJO Madrid,,27,Madrid,http://www.wikidata.org/entity/Q1753102,MADRID,28034,La Paz,http://www.wikidata.org/entity/Q5869740,Fuencarral-El Pardo,http://www.wikidata.org/entity/Q656196,40.48531189120052,-3.7006858825216624,,,/contenido/entidadesYorganismos/ParquesJardines,ParquesJardines
Parque de la Vicalvarada,,Parque-de-la-Vicalvarada,sí,,,"Bus: 4 , 100 , 106  Servicio Bicimad, para consultar la estación más cercana, acceda al mapa de geolocalización de las estaciones.",,,,,,,"Bus: 4 , 100 , 106","4
100
106",49712,Instalación parcialmente accesible para personas con movilidad reducida,VILLABLANCA,calle VILLABLANCA Madrid,,1,Madrid,http://www.wikidata.org/entity/Q1753102,MADRID,28032,Ambroz,http://www.wikidata.org/entity/Q11905294,Vicálvaro,http://www.wikidata.org/entity/Q589403,40.40930182229157,-3.608605091516184,,,/contenido/entidadesYorganismos/ParquesJardines,ParquesJardines
Parque de la Volatería,,Parque-de-la-Volateria,no,,,"Metro: línea 11 (San Francisco)  Bus: 116,121,131,155",,,,Metro: línea 11 (San Francisco),línea 11,11,"Bus: 116,121,131,155","116
121
131
155",158058,Instalación parcialmente accesible para personas con movilidad reducida,POBLADOS,avenida de los Poblados,http://www.wikidata.org/entity/Q26795575,110,Madrid,http://www.wikidata.org/entity/Q1753102,MADRID,28054,Buenavista,http://www.wikidata.org/entity/Q953929,Carabanchel,http://www.wikidata.org/entity/Q1001991,40.37342722778796,-3.732581210214349,,,/contenido/entidadesYorganismos/ParquesJardines,ParquesJardines
Parque de las Avenidas,,Parque-de-las-Avenidas,sí,,,"Metro: Parque de las Avenidas (línea 7) Bus: 53, 122, 74, 43, N3.  Servicio Bicimad, para consultar la estación más cercana, acceda al mapa de geolocalización de las estaciones.",,,,Metro: Parque de las Avenidas (línea 7),Parque de las Avenidas,7,"Bus: 53, 122, 74, 43, N3","53
122
74
43
3",47000,Instalación parcialmente accesible para personas con movilidad reducida,BRASILIA,calle BRASILIA Madrid,,6,Madrid,http://www.wikidata.org/entity/Q1753102,MADRID,28028,La Guindalera,http://www.wikidata.org/entity/Q3814559,Salamanca,http://www.wikidata.org/entity/Q1773521,40.44185168357492,-3.6610753472863737,,,/contenido/entidadesYorganismos/ParquesJardines,ParquesJardines
Parque del Bronce,,Parque-del-Bronce,no,,,"Bus: 62, 88 y 148  Servicio Bicimad, para consultar la estación más cercana, acceda al mapa de geolocalización de las estaciones.",,,,,,,"Bus: 62, 88 y 148","62
88
148",28800,Instalación parcialmente accesible para personas con movilidad reducida,BRONCE,calle BRONCE Madrid,,5,Madrid,http://www.wikidata.org/entity/Q1753102,MADRID,28045,Legazpi,http://www.wikidata.org/entity/Q3773990,Arganzuela,http://www.wikidata.org/entity/Q2000929,40.390471636161195,-3.6875778883164587,,,/contenido/entidadesYorganismos/ParquesJardines,ParquesJardines
Parque del Espinillo,,Parque-del-Espinillo,sí,,,"Metro: Ciudad de los Ángeles (línea 3) Bus: 23, 130  Servicio Bicimad, para consultar la estación más cercana, acceda al mapa de geolocalización de las estaciones.",,,,Metro: Ciudad de los Ángeles (línea 3),Ciudad de los Ángeles,3,"Bus: 23, 130","23
130",73188,Instalación parcialmente accesible para personas con movilidad reducida,UNANIMIDAD,calle UNANIMIDAD Madrid,,23,Madrid,http://www.wikidata.org/entity/Q1753102,MADRID,28041,Los Rosales,http://www.wikidata.org/entity/Q10319807,Villaverde,http://www.wikidata.org/entity/Q919536,40.361196526923834,-3.6853017812008,,,/contenido/entidadesYorganismos/ParquesJardines,ParquesJardines
Parque del Museo del Prado,,Parque-del-Museo-del-Prado,no especifica,,,"Metro: Atocha (línea 1). Bus: 10 , 14 , 27 , 34 , 37 , 45 , 59 , 141. RENFE: Atocha RENFE.  Servicio Bicimad, para consultar la estación más cercana, acceda al mapa de geolocalización de las estaciones.",RENFE,,,Metro: Atocha (línea 1),Atocha,1,"Bus: 10 , 14 , 27 , 34 , 37 , 45 , 59 , 141","10
14
27
34
37
45
59
141",12900,Instalación parcialmente accesible para personas con movilidad reducida,PRADO,Calle del Prado,http://www.wikidata.org/entity/Q16389845,11,Madrid,http://www.wikidata.org/entity/Q1753102,MADRID,28014,Jerónimos,http://www.wikidata.org/entity/Q10306766,Retiro,http://www.wikidata.org/entity/Q2002296,40.41374876020892,-3.6924939830736947,,,/contenido/entidadesYorganismos/ParquesJardines,ParquesJardines
Pinar Santa Eugenia,,Pinar-Santa-Eugenia,no especifica,,,"Bus: 14, 58 RENFE: Santa Eugenia  Servicio Bicimad, para consultar la estación más cercana, acceda al mapa de geolocalización de las estaciones.",RENFE: Santa Eugenia C2,C-2,: Santa Eugenia,,,,"Bus: 14, 58","14
58",136270,Instalación parcialmente accesible para personas con movilidad reducida,CERRO DE ALMODOVAR,calle CERRO DE ALMODOVAR Madrid,,1,Madrid,http://www.wikidata.org/entity/Q1753102,MADRID,28031,Casco Histórico de Vicálvaro,http://www.wikidata.org/entity/Q16544374,Vicálvaro,http://www.wikidata.org/entity/Q589403,40.386190698831044,-3.605345456872275,,,/contenido/entidadesYorganismos/ParquesJardines/ParquesForestales,ParquesJardines
Plaza Mayor de Barajas,,Plaza-Mayor-de-Barajas,no especifica,,,"Metro: Línea 8 (Barajas)  Bus: 101  Servicio Bicimad, para consultar la estación más cercana, acceda al mapa de geolocalización de las estaciones.",,,,Metro: Línea 8 (Barajas),Línea 8,8,Bus: 101,101,,Instalación parcialmente accesible para personas con movilidad reducida,MAYOR DE BARAJAS,calle MAYOR DE BARAJAS Madrid,,1,Madrid,http://www.wikidata.org/entity/Q1753102,MADRID,28042,Casco Histórico de Barajas,http://www.wikidata.org/entity/Q9701730,Barajas,http://www.wikidata.org/entity/Q807230,40.4735113714068,-3.57805132010274,,,/contenido/entidadesYorganismos/ParquesJardines,ParquesJardines
Plaza de Murillo,http://www.wikidata.org/entity/Q115799392,Plaza-de-Murillo,no especifica,,,"Metro: línea 1 (Atocha)  Bus: 10,14, 27, 34, 37, 45  Servicio Bicimad, para consultar la estación más cercana, acceda al mapa de geolocalización de las estaciones.",,,,Metro: línea 1 (Atocha),línea 1,1,"Bus: 10,14, 27, 34, 37, 45","10
14
27
34
37
45",5436,Instalación parcialmente accesible para personas con movilidad reducida,MURILLO,calle de Bravo Murillo,http://www.wikidata.org/entity/Q5740815,1,Madrid,http://www.wikidata.org/entity/Q1753102,MADRID,28014,Jerónimos,http://www.wikidata.org/entity/Q10306766,Retiro,http://www.wikidata.org/entity/Q2002296,40.41290521872114,-3.692004931820884,,,/contenido/entidadesYorganismos/ParquesJardines,ParquesJardines
Plaza de la Lealtad,,Plaza-de-la-Lealtad,no especifica,,,"Metro: línea 1 (Atocha), línea 2 (Banco de España) Bus: 10, 14,27,34,37,45  Servicio Bicimad, para consultar la estación más cercana, acceda al mapa de geolocalización de las estaciones.",,,,"Metro: línea 1 (Atocha), línea 2 (Banco de España)","línea 1 , línea 2","1
2","Bus: 10, 14,27,34,37,45","10
14
27
34
37
45",8600,Instalación parcialmente accesible para personas con movilidad reducida,PLAZA DE LA LEALTAD,calle PLAZA DE LA LEALTAD Madrid,,,Madrid,http://www.wikidata.org/entity/Q1753102,MADRID,28014,,,Retiro,http://www.wikidata.org/entity/Q2002296,40.41687551533723,-3.6934169057776667,,,/contenido/entidadesYorganismos/ParquesJardines,ParquesJardines
Rosaleda de Madrid. Parque del Oeste,,Rosaleda-de-Madrid.-Parque-del-Oeste,no especifica,,,"Transporte más próximo Bus: 41, 46, 75   También puedes acceder desde metro:   Arg&amp;uuml;elles   Príncipe Pío",,,,metro:   Arguelles   Príncipe Pío,metro:   Arguelles   Príncipe Pío,,"Bus: 41, 46, 75","41
46
75",32000,Instalación parcialmente accesible para personas con movilidad reducida,ROSALEDA,calle ROSALEDA Madrid,,1,Madrid,http://www.wikidata.org/entity/Q1753102,MADRID,28008,Casa de Campo,http://www.wikidata.org/entity/Q16302441,Moncloa-Aravaca,http://www.wikidata.org/entity/Q2017682,40.42633204176242,-3.722298777408928,"915489512
3",sviveros@madrid.es,/contenido/entidadesYorganismos/ParquesJardines/ColeccionesBotanicas,ParquesJardines
Vivero Estufas de El Retiro,,Vivero-Estufas-de-El-Retiro,no especifica,,,"Metro: Atocha (línea 1), Ibiza (línea 9) Bus: 26, 63 , 152, C1, C2  Servicio Bicimad, para consultar la estación más cercana, acceda al mapa de geolocalización de las estaciones.",,,,"Metro: Atocha (línea 1), Ibiza (línea 9)","Atocha , Ibiza","1
9","Bus: 26, 63 , 152, C1, C2","26
63
152
1
2",35000,Instalación parcialmente accesible para personas con movilidad reducida,ANGEL CAIDO,calle ANGEL CAIDO Madrid,,4,Madrid,http://www.wikidata.org/entity/Q1753102,MADRID,28009,Jerónimos,http://www.wikidata.org/entity/Q10306766,Retiro,http://www.wikidata.org/entity/Q2002296,40.409899256936335,-3.6823305487957123,915280938,viveroestufasretiro@madrid.es,/contenido/entidadesYorganismos/ParquesJardines,ParquesJardines
Vivero de la Casa de Campo,,Vivero-de-la-Casa-de-Campo,no especifica,,,"Metro: Príncipe Pío (líneas 6 y 10 y ramal), Lago (línea 10)  Servicio Bicimad, para consultar la estación más cercana, acceda al mapa de geolocalización de las estaciones.",,,,"Metro: Príncipe Pío (líneas 6 y 10 y ramal), Lago (línea 10)","Príncipe Pío , Lago","6
10",,,170000,Instalación parcialmente accesible para personas con movilidad reducida,AZUL,Calle de los Caídos de la División Azul,http://www.wikidata.org/entity/Q29793566,2,Madrid,http://www.wikidata.org/entity/Q1753102,MADRID,28011,Casa de Campo,http://www.wikidata.org/entity/Q16302441,Moncloa-Aravaca,http://www.wikidata.org/entity/Q2017682,40.41984158690351,-3.7286969080235455,"915267703
915268142",viverocasacampo@madrid.es  o infocasacampo@madrid.es,/contenido/entidadesYorganismos/ParquesJardines,ParquesJardines
Vivero municipal de Migas Calientes,,Vivero-municipal-de-Migas-Calientes,no especifica,,,,,,,,,,,,73000,No accesible,M-30,calle M-30 Madrid,,2200,Madrid,http://www.wikidata.org/entity/Q1753102,MADRID,28040,Ciudad Universitaria,http://www.wikidata.org/entity/Q3319235,Moncloa-Aravaca,http://www.wikidata.org/entity/Q2017682,40.445355536117184,-3.7399742609916697,626527364,viveromigascalientes@madrid.es,/contenido/entidadesYorganismos/ParquesJardines,ParquesJardines
Zona verde C/ Fresnedillas,,Zona-verde-C/-Fresnedillas,no,,,,,,,,,,,,,Instalación parcialmente accesible para personas con movilidad reducida,FRESNEDILLAS,calle FRESNEDILLAS Madrid,,1,Madrid,http://www.wikidata.org/entity/Q1753102,MADRID,28035,Fuentelarreina,http://www.wikidata.org/entity/Q10286156,Fuencarral-El Pardo,http://www.wikidata.org/entity/Q656196,40.477263871475174,-3.7430025162285188,,,/contenido/entidadesYorganismos/ParquesJardines,ParquesJardines
Área Forestal de Tres Cantos,,area-Forestal-de-Tres-Cantos,no especifica,,,,,,,,,,,,2285600,Instalación parcialmente accesible para personas con movilidad reducida,M-607,calle M-607 Madrid,,2100,Madrid,http://www.wikidata.org/entity/Q1753102,MADRID,28049,El Pardo,http://www.wikidata.org/entity/Q3314337,Fuencarral-El Pardo,http://www.wikidata.org/entity/Q656196,40.582362517713584,-3.7054314643264945,,,/contenido/entidadesYorganismos/ParquesJardines/ParquesForestales,ParquesJardines
